{"type":"FeatureCollection", "features": [
{"type":"Feature","geometry":{"type":"Polygon","coordinates":[[[101.7184,13.18135],[101.66785,13.2728],[101.5642,13.33135],[101.5475,13.38575],[101.4726,13.3487],[101.42345,13.3725],[101.3438,13.33135],[101.2798,13.34875],[101.26665,13.31355],[101.31845,13.28155],[101.4172,13.16315],[101.5173,13.1365],[101.5455,13.0713],[101.57815,13.1094],[101.6365,13.15905],[101.69525,13.1459],[101.7184,13.18135]]]},"properties":{"amp_code":"2010","amp_th":"บ่อทอง","amp_en":"Bo Thong","pro_code":"20","pro_th":"ชลบุรี","pro_en":"Chonburi"}},
{"type":"Feature","geometry":{"type":"Polygon","coordinates":[[[101.5475,13.38575],[101.5322,13.42515],[101.50155,13.40995],[101.49005,13.4439],[101.4679,13.4246],[101.401,13.4502],[101.40515,13.4726],[101.3683,13.4658],[101.3457,13.42695],[101.2704,13.42195],[101.2798,13.34875],[101.3438,13.33135],[101.42345,13.3725],[101.4726,13.3487],[101.5475,13.38575]]]},"properties":{"amp_code":"2011","amp_th":"เกาะจันทร์","amp_en":"Ko Chan","pro_code":"20","pro_th":"ชลบุรี","pro_en":"Chonburi"}},
{"type":"Feature","geometry":{"type":"MultiPolygon","coordinates":[[[[100.8922,12.86525],[100.91295,12.81505],[100.8883,12.76325],[100.84035,12.7525],[100.8501,12.64915],[100.91515,12.6593],[100.92595,12.60515],[100.96345,12.59455],[100.96935,12.64615],[100.9931,12.6561],[101.0121,12.7672],[100.95835,12.77245],[100.8922,12.86525]]],[[[100.78095,12.71665],[100.7801,12.671],[100.80605,12.69645],[100.78095,12.71665]]]]},"properties":{"amp_code":"2009","amp_th":"สัตหีบ","amp_en":"Sattahip","pro_code":"20","pro_th":"ชลบุรี","pro_en":"Chonburi"}},
{"type":"Feature","geometry":{"type":"Polygon","coordinates":[[[101.0667,13.0078],[101.08695,13.0306],[101.15525,13.00175],[101.17295,13.01035],[101.15835,13.04725],[101.18815,13.03845],[101.22115,13.07685],[101.22005,13.09185],[101.07055,13.20255],[101.0521,13.26925],[101.0234,13.28175],[100.93175,13.23785],[100.9235,13.1677],[100.8713,13.07795],[100.91805,13.04015],[100.91205,13.06545],[100.95225,13.0851],[100.95535,13.0478],[101.0667,13.0078]]]},"properties":{"amp_code":"2007","amp_th":"ศรีราชา","amp_en":"Si Racha","pro_code":"20","pro_th":"ชลบุรี","pro_en":"Chonburi"}},
{"type":"Feature","geometry":{"type":"Polygon","coordinates":[[[100.8086,13.17825],[100.80975,13.1249],[100.8201,13.1502],[100.8086,13.17825]]]},"properties":{"amp_code":"2008","amp_th":"เกาะสีชัง","amp_en":"Ko Sichang","pro_code":"20","pro_th":"ชลบุรี","pro_en":"Chonburi"}},
{"type":"Feature","geometry":{"type":"Polygon","coordinates":[[[101.00585,13.45945],[101.0724,13.4378],[101.06455,13.39055],[101.1151,13.36175],[101.13385,13.37585],[101.14135,13.43535],[101.104,13.5101],[101.12145,13.56145],[101.04115,13.5513],[101.0704,13.5179],[101.00585,13.45945]]]},"properties":{"amp_code":"2005","amp_th":"พานทอง","amp_en":"Phan Thong","pro_code":"20","pro_th":"ชลบุรี","pro_en":"Chonburi"}},
{"type":"Feature","geometry":{"type":"Polygon","coordinates":[[[101.2798,13.34875],[101.2704,13.42195],[101.3457,13.42695],[101.3683,13.4658],[101.24685,13.57065],[101.1422,13.58955],[101.12145,13.56145],[101.104,13.5101],[101.14135,13.43535],[101.13385,13.37585],[101.1826,13.37785],[101.26665,13.31355],[101.2798,13.34875]]]},"properties":{"amp_code":"2006","amp_th":"พนัสนิคม","amp_en":"Phanat Nikhom","pro_code":"20","pro_th":"ชลบุรี","pro_en":"Chonburi"}},
{"type":"Feature","geometry":{"type":"Polygon","coordinates":[[[101.31845,13.28155],[101.31065,13.19925],[101.2488,13.17905],[101.2558,13.0939],[101.22005,13.09185],[101.22115,13.07685],[101.29125,13.0572],[101.3243,13.0857],[101.39465,13.02385],[101.4354,13.0518],[101.47195,13.0305],[101.46855,13.05095],[101.5455,13.0713],[101.5173,13.1365],[101.4172,13.16315],[101.31845,13.28155]]]},"properties":{"amp_code":"2003","amp_th":"หนองใหญ่","amp_en":"Nong Yai","pro_code":"20","pro_th":"ชลบุรี","pro_en":"Chonburi"}},
{"type":"Feature","geometry":{"type":"MultiPolygon","coordinates":[[[[101.0121,12.7672],[101.047,12.8133],[101.0887,12.9207],[101.1037,12.97245],[101.0667,13.0078],[100.95535,13.0478],[100.95225,13.0851],[100.91205,13.06545],[100.91805,13.04015],[100.92085,12.989],[100.883,12.97015],[100.8564,12.9102],[100.8922,12.86525],[100.95835,12.77245],[101.0121,12.7672]]],[[[100.7891,12.92435],[100.77045,12.9279],[100.7743,12.89765],[100.7891,12.92435]]]]},"properties":{"amp_code":"2004","amp_th":"บางละมุง","amp_en":"Bang Lamung","pro_code":"20","pro_th":"ชลบุรี","pro_en":"Chonburi"}},
{"type":"Feature","geometry":{"type":"Polygon","coordinates":[[[100.97395,13.47325],[100.98265,13.3658],[100.8976,13.30185],[100.93175,13.23785],[101.0234,13.28175],[101.0521,13.26925],[101.07325,13.30925],[101.0406,13.3576],[101.06455,13.39055],[101.0724,13.4378],[101.00585,13.45945],[100.97395,13.47325]]]},"properties":{"amp_code":"2001","amp_th":"เมืองชลบุรี","amp_en":"Mueang Chonburi","pro_code":"20","pro_th":"ชลบุรี","pro_en":"Chonburi"}},
{"type":"Feature","geometry":{"type":"Polygon","coordinates":[[[101.26665,13.31355],[101.1826,13.37785],[101.13385,13.37585],[101.1151,13.36175],[101.06455,13.39055],[101.0406,13.3576],[101.07325,13.30925],[101.0521,13.26925],[101.07055,13.20255],[101.22005,13.09185],[101.2558,13.0939],[101.2488,13.17905],[101.31065,13.19925],[101.31845,13.28155],[101.26665,13.31355]]]},"properties":{"amp_code":"2002","amp_th":"บ้านบึง","amp_en":"Ban Bueng","pro_code":"20","pro_th":"ชลบุรี","pro_en":"Chonburi"}}
]}