{"type":"FeatureCollection", "features": [
{"type":"Feature","geometry":{"type":"Polygon","coordinates":[[[100.1142,18.8091],[100.34,18.8054],[100.4045,18.9445],[100.4818,18.9516],[100.5034,18.9926],[100.4572,19.0096],[100.4944,19.0525],[100.6195,19.034],[100.5638,19.0804],[100.6224,19.1114],[100.6168,19.3216],[100.5701,19.3051],[100.488,19.3821],[100.5987,19.5102],[100.4824,19.5488],[100.4067,19.736],[100.3174,19.6495],[100.1692,19.6018],[100.1628,19.5421],[100.0679,19.5399],[100.0668,19.4311],[99.9211,19.4066],[99.8748,19.4552],[99.787,19.4501],[99.6829,19.4223],[99.6933,19.3833],[99.7735,19.0643],[100.1142,18.8091]]]},"properties":{"pro_code":"56","pro_th":"พะเยา","pro_en":"Phayao","reg_nesdb":"UpperNorth","reg_royin":"North"}},
{"type":"Feature","geometry":{"type":"Polygon","coordinates":[[[100.4067,19.736],[100.5201,19.9035],[100.5777,20.1687],[100.5266,20.1432],[100.4556,20.1987],[100.3301,20.3986],[100.2495,20.3857],[100.1415,20.2466],[100.0919,20.2677],[100.0722,20.3882],[99.9609,20.4646],[99.8601,20.442],[99.8108,20.3361],[99.6813,20.3166],[99.4589,20.3939],[99.5637,20.2054],[99.5128,20.1471],[99.5703,20.1081],[99.4951,20.0804],[99.3834,19.8904],[99.4186,19.8133],[99.2584,19.6504],[99.3259,19.5394],[99.295,19.4925],[99.3424,19.269],[99.3038,19.1936],[99.4016,19.0001],[99.5401,19.0848],[99.5657,19.4178],[99.6933,19.3833],[99.6829,19.4223],[99.787,19.4501],[99.8748,19.4552],[99.9211,19.4066],[100.0668,19.4311],[100.0679,19.5399],[100.1628,19.5421],[100.1692,19.6018],[100.3174,19.6495],[100.4067,19.736]]]},"properties":{"pro_code":"57","pro_th":"เชียงราย","pro_en":"Chiang Rai","reg_nesdb":"UpperNorth","reg_royin":"North"}},
{"type":"Feature","geometry":{"type":"Polygon","coordinates":[[[100.1142,18.8091],[100.109,18.563],[100.0562,18.558],[99.9998,18.4019],[99.9067,18.2801],[99.8584,18.2842],[99.7194,18.0698],[99.5857,18.0354],[99.3934,17.8154],[99.3862,17.6856],[99.4713,17.7379],[99.5981,17.8216],[99.7295,17.7215],[99.7824,17.7909],[99.8947,17.8056],[99.9583,17.7797],[99.9779,17.8339],[100.1298,17.8563],[100.2465,17.962],[100.3343,17.8888],[100.3502,17.9828],[100.4136,18.022],[100.397,18.1351],[100.4462,18.1584],[100.4814,18.3497],[100.5497,18.456],[100.5413,18.4896],[100.3998,18.4859],[100.3968,18.6281],[100.3524,18.6803],[100.3918,18.7404],[100.34,18.8054],[100.1142,18.8091]]]},"properties":{"pro_code":"54","pro_th":"แพร่","pro_en":"Phrae","reg_nesdb":"UpperNorth","reg_royin":"North"}},
{"type":"Feature","geometry":{"type":"Polygon","coordinates":[[[100.34,18.8054],[100.3918,18.7404],[100.3524,18.6803],[100.3968,18.6281],[100.3998,18.4859],[100.5413,18.4896],[100.5497,18.456],[100.4814,18.3497],[100.4462,18.1584],[100.397,18.1351],[100.4136,18.022],[100.4813,18.0553],[100.7058,18.0265],[100.7171,18.0677],[100.777,18.0325],[100.9138,18.1593],[100.9256,18.2502],[101.0858,18.3807],[101.0542,18.4427],[101.2723,18.6885],[101.2241,18.7327],[101.2456,18.8865],[101.357,19.05],[101.2568,19.1246],[101.2415,19.3265],[101.1869,19.3991],[101.2104,19.4732],[101.266,19.4706],[101.2877,19.5687],[101.2438,19.6034],[101.1226,19.5728],[101.0348,19.6292],[100.8931,19.6342],[100.779,19.4926],[100.6514,19.5568],[100.5987,19.5102],[100.488,19.3821],[100.5701,19.3051],[100.6168,19.3216],[100.6224,19.1114],[100.5638,19.0804],[100.6195,19.034],[100.4944,19.0525],[100.4572,19.0096],[100.5034,18.9926],[100.4818,18.9516],[100.4045,18.9445],[100.34,18.8054]]]},"properties":{"pro_code":"55","pro_th":"น่าน","pro_en":"Nan","reg_nesdb":"UpperNorth","reg_royin":"North"}},
{"type":"Feature","geometry":{"type":"Polygon","coordinates":[[[99.0867,15.8868],[99.1163,16.0754],[99.0506,16.1373],[99.0805,16.2159],[99.02,16.4176],[99.1913,16.5388],[99.2405,16.5335],[99.2915,16.7836],[99.4625,16.8817],[99.3935,17.0828],[99.3223,17.112],[99.3162,17.2694],[99.27,17.4004],[99.2284,17.4056],[99.1726,17.3364],[99.1093,17.3588],[98.932,17.4743],[98.9109,17.5354],[98.6906,17.4241],[98.6839,17.6658],[98.7459,17.6927],[98.6852,17.7911],[98.6708,17.834],[98.624,17.7773],[98.4939,17.8137],[98.5743,17.2847],[98.3926,17.2423],[98.2917,17.408],[98.3295,17.4692],[98.2981,17.5764],[98.1367,17.5412],[98.0898,17.6366],[97.9694,17.8682],[97.8473,17.7785],[97.7426,17.7848],[97.7935,17.6795],[98.1099,17.3858],[98.1351,17.2926],[98.2425,17.2295],[98.2802,17.1155],[98.3226,17.111],[98.2996,17.0911],[98.4376,17.0363],[98.5083,16.9478],[98.5399,16.8609],[98.5084,16.8795],[98.4921,16.8415],[98.5478,16.8146],[98.4872,16.7912],[98.4635,16.7281],[98.5174,16.7012],[98.5124,16.6441],[98.5712,16.6318],[98.6511,16.4718],[98.6762,16.2712],[98.8289,16.4221],[98.9188,16.3847],[98.928,16.3065],[98.8558,16.2237],[98.8476,16.1276],[98.6867,16.1331],[98.6313,16.0478],[98.5668,16.0559],[98.6105,15.8765],[98.5586,15.6511],[98.6479,15.6332],[98.7026,15.5015],[98.9844,15.1803],[99.0684,15.3953],[99.0483,15.5554],[99.1157,15.6335],[99.1338,15.7982],[99.0867,15.8868]]]},"properties":{"pro_code":"63","pro_th":"ตาก","pro_en":"Tak","reg_nesdb":"LowwerNorth","reg_royin":"West"}},
{"type":"Feature","geometry":{"type":"Polygon","coordinates":[[[99.4713,17.7379],[99.4061,17.4713],[99.4764,17.3411],[99.4557,17.2545],[99.3931,17.2064],[99.3162,17.2694],[99.3223,17.112],[99.3935,17.0828],[99.4625,16.8817],[99.4888,16.9135],[99.5314,16.825],[99.5713,16.8593],[99.6229,16.7575],[99.7038,16.7174],[99.7459,16.7434],[99.7644,16.6842],[99.8534,16.7356],[99.9426,16.8658],[100.1106,16.9151],[100.1076,16.9744],[99.9594,17.1179],[99.9732,17.1646],[99.9549,17.2428],[100.0309,17.444],[99.9326,17.5069],[99.9241,17.5871],[99.9768,17.6579],[99.8947,17.8056],[99.7824,17.7909],[99.7295,17.7215],[99.5981,17.8216],[99.4713,17.7379]]]},"properties":{"pro_code":"64","pro_th":"สุโขทัย","pro_en":"Sukhothai","reg_nesdb":"LowwerNorth","reg_royin":"Central"}},
{"type":"Feature","geometry":{"type":"Polygon","coordinates":[[[98.9844,15.1803],[99.0293,15.0486],[99.2832,14.9979],[99.3391,15.0815],[99.4197,15.0486],[99.4449,14.9834],[99.6305,14.9378],[99.6275,14.9883],[99.7311,14.9637],[99.7909,15.0865],[99.7316,15.2088],[99.7574,15.3121],[100.0027,15.3021],[100.0584,15.2638],[100.102,15.4175],[100.0132,15.4728],[100.0351,15.51],[99.9479,15.5016],[99.9319,15.6734],[99.8625,15.6175],[99.7055,15.6854],[99.4696,15.5648],[99.3599,15.6775],[99.1338,15.7982],[99.1157,15.6335],[99.0483,15.5554],[99.0684,15.3953],[98.9844,15.1803]]]},"properties":{"pro_code":"61","pro_th":"อุทัยธานี","pro_en":"Uthai Thani","reg_nesdb":"LowwerNorth","reg_royin":"Central"}},
{"type":"Feature","geometry":{"type":"Polygon","coordinates":[[[99.0867,15.8868],[99.2082,15.9487],[99.2899,15.8919],[99.3194,15.9275],[99.5404,15.9263],[99.7398,15.8582],[100.0253,16.1918],[100.0273,16.3315],[99.9834,16.3751],[100.0347,16.5022],[100.0126,16.5751],[99.9255,16.5815],[99.8534,16.7356],[99.7644,16.6842],[99.7459,16.7434],[99.7038,16.7174],[99.6229,16.7575],[99.5713,16.8593],[99.5314,16.825],[99.4888,16.9135],[99.4625,16.8817],[99.2915,16.7836],[99.2405,16.5335],[99.1913,16.5388],[99.02,16.4176],[99.0805,16.2159],[99.0506,16.1373],[99.1163,16.0754],[99.0867,15.8868]]]},"properties":{"pro_code":"62","pro_th":"กำแพงเพชร","pro_en":"Kamphaeng Phet","reg_nesdb":"LowwerNorth","reg_royin":"Central"}},
{"type":"Feature","geometry":{"type":"Polygon","coordinates":[[[99.1338,15.7982],[99.3599,15.6775],[99.4696,15.5648],[99.7055,15.6854],[99.8625,15.6175],[99.9319,15.6734],[99.9479,15.5016],[100.0351,15.51],[100.0132,15.4728],[100.102,15.4175],[100.2521,15.3559],[100.2749,15.2244],[100.3516,15.1199],[100.4274,15.0618],[100.6131,15.2437],[100.6437,15.4168],[100.7687,15.462],[100.7451,15.5119],[100.8322,15.5637],[100.7664,15.9314],[100.7378,15.9893],[100.6544,16.0067],[100.5363,15.924],[100.3315,15.9411],[100.3222,15.9878],[100.1813,15.9287],[100.0756,16.1631],[100.0253,16.1918],[99.7398,15.8582],[99.5404,15.9263],[99.3194,15.9275],[99.2899,15.8919],[99.2082,15.9487],[99.0867,15.8868],[99.1338,15.7982]]]},"properties":{"pro_code":"60","pro_th":"นครสวรรค์","pro_en":"Nakhon Sawan","reg_nesdb":"LowwerNorth","reg_royin":"Central"}},
{"type":"Feature","geometry":{"type":"Polygon","coordinates":[[[100.8322,15.5637],[100.9269,15.4832],[100.9323,15.4145],[100.9753,15.4167],[100.9856,15.3247],[101.0823,15.3523],[101.2021,15.3256],[101.3055,15.3927],[101.2881,15.5311],[101.3484,15.7504],[101.3172,15.7898],[101.3743,15.9195],[101.3229,16.041],[101.3775,16.1871],[101.3534,16.2601],[101.3984,16.4008],[101.5195,16.5495],[101.5106,16.6769],[101.5719,16.6483],[101.5598,16.7307],[101.7508,16.668],[101.7879,16.7643],[101.7277,16.7533],[101.687,16.7986],[101.7215,16.8068],[101.6501,17.0415],[101.5752,16.9836],[101.5043,17.0102],[101.3976,17.178],[101.1162,17.0195],[101.1068,16.9073],[101.0668,16.9021],[100.9491,16.7913],[100.9032,16.8021],[100.9422,16.6814],[100.8614,16.6383],[100.8052,16.4499],[100.7094,16.418],[100.6526,16.322],[100.6692,16.2505],[100.7191,16.2515],[100.6353,16.0457],[100.7821,15.994],[100.799,15.9363],[100.7664,15.9314],[100.8322,15.5637]]]},"properties":{"pro_code":"67","pro_th":"เพชรบูรณ์","pro_en":"Phetchabun","reg_nesdb":"LowwerNorth","reg_royin":"Central"}},
{"type":"Feature","geometry":{"type":"Polygon","coordinates":[[[99.8534,16.7356],[99.9255,16.5815],[100.0126,16.5751],[100.1187,16.6141],[100.1858,16.586],[100.2159,16.6477],[100.25,16.5301],[100.386,16.5536],[100.4712,16.5198],[100.5758,16.5856],[100.5683,16.4598],[100.6526,16.322],[100.7094,16.418],[100.8052,16.4499],[100.8614,16.6383],[100.9422,16.6814],[100.9032,16.8021],[100.9491,16.7913],[101.0668,16.9021],[101.0285,16.9445],[101.1094,17.2344],[101.0065,17.3341],[100.9141,17.3425],[100.9161,17.4517],[100.8349,17.4684],[100.8808,17.5846],[100.9668,17.5709],[100.9883,17.743],[100.9555,17.7007],[100.8713,17.7068],[100.5896,17.4196],[100.4267,17.4214],[100.2434,17.352],[100.2533,17.2483],[100.1617,17.1674],[100.0365,17.1814],[99.9961,17.1375],[99.9732,17.1646],[99.9594,17.1179],[100.1076,16.9744],[100.1106,16.9151],[99.9426,16.8658],[99.8534,16.7356]]]},"properties":{"pro_code":"65","pro_th":"พิษณุโลก","pro_en":"Phitsanulok","reg_nesdb":"LowwerNorth","reg_royin":"Central"}},
{"type":"Feature","geometry":{"type":"Polygon","coordinates":[[[100.0253,16.1918],[100.0756,16.1631],[100.1813,15.9287],[100.3222,15.9878],[100.3315,15.9411],[100.5363,15.924],[100.6544,16.0067],[100.7378,15.9893],[100.7664,15.9314],[100.799,15.9363],[100.7821,15.994],[100.6353,16.0457],[100.7191,16.2515],[100.6692,16.2505],[100.6526,16.322],[100.5683,16.4598],[100.5758,16.5856],[100.4712,16.5198],[100.386,16.5536],[100.25,16.5301],[100.2159,16.6477],[100.1858,16.586],[100.1187,16.6141],[100.0126,16.5751],[100.0347,16.5022],[99.9834,16.3751],[100.0273,16.3315],[100.0253,16.1918]]]},"properties":{"pro_code":"66","pro_th":"พิจิตร","pro_en":"Phichit","reg_nesdb":"LowwerNorth","reg_royin":"Central"}},
{"type":"Feature","geometry":{"type":"Polygon","coordinates":[[[102.4313,14.1523],[102.686,14.2985],[102.5622,14.3757],[102.61,14.4945],[102.4814,14.5145],[102.4832,14.7588],[102.449,14.8229],[102.5327,14.8141],[102.5461,14.947],[102.6967,14.9342],[102.7966,15.0394],[102.7624,15.0791],[102.8181,15.1441],[102.9742,15.2064],[102.9527,15.3352],[102.9846,15.3741],[102.9518,15.4039],[103.0126,15.4303],[102.9253,15.5108],[102.8169,15.5121],[102.7769,15.6341],[102.6791,15.7283],[102.4039,15.7006],[102.3279,15.8037],[102.1557,15.7422],[102.0356,15.4795],[101.9331,15.4565],[101.8774,15.3914],[101.7996,15.4233],[101.7639,15.3811],[101.6514,15.4012],[101.6187,15.3641],[101.3825,15.3332],[101.3991,15.0725],[101.4508,14.8577],[101.2976,14.7388],[101.1884,14.7493],[101.2154,14.5871],[101.1811,14.5436],[101.2428,14.4715],[101.2777,14.5122],[101.4322,14.3895],[101.4361,14.4458],[101.4829,14.4628],[101.6223,14.4269],[101.7421,14.3075],[101.7489,14.3479],[101.8402,14.3661],[101.9295,14.3279],[101.9666,14.2278],[102.1067,14.1514],[102.1637,14.1406],[102.192,14.195],[102.216,14.1446],[102.3073,14.1201],[102.3592,14.1657],[102.4313,14.1523]]]},"properties":{"pro_code":"30","pro_th":"นครราชสีมา","pro_en":"Nakhon Ratchasima","reg_nesdb":"Northeast","reg_royin":"Northeast"}},
{"type":"Feature","geometry":{"type":"Polygon","coordinates":[[[102.4313,14.1523],[102.5502,14.1352],[102.608,14.1711],[102.6957,14.1306],[102.9298,14.1764],[103.0573,14.2852],[103.2269,14.327],[103.2097,14.569],[103.2689,14.7013],[103.2477,14.7599],[103.425,14.9283],[103.4192,15.203],[103.5034,15.3068],[103.3485,15.3469],[103.2496,15.3066],[103.0893,15.4198],[103.1111,15.4816],[102.9766,15.6571],[103.006,15.7254],[102.9305,15.7962],[102.8833,15.7761],[102.8602,15.6409],[102.7769,15.6341],[102.8169,15.5121],[102.9253,15.5108],[103.0126,15.4303],[102.9518,15.4039],[102.9846,15.3741],[102.9527,15.3352],[102.9742,15.2064],[102.8181,15.1441],[102.7624,15.0791],[102.7966,15.0394],[102.6967,14.9342],[102.5461,14.947],[102.5327,14.8141],[102.449,14.8229],[102.4832,14.7588],[102.4814,14.5145],[102.61,14.4945],[102.5622,14.3757],[102.686,14.2985],[102.4313,14.1523]]]},"properties":{"pro_code":"31","pro_th":"บุรีรัมย์","pro_en":"Buriram","reg_nesdb":"Northeast","reg_royin":"Northeast"}},
{"type":"Feature","geometry":{"type":"Polygon","coordinates":[[[100.0796,13.4242],[100.2938,13.4999],[100.4107,13.4915],[100.4086,13.5009],[100.407,13.5043],[100.4069,13.5045],[100.4068,13.505],[100.4067,13.5053],[100.4067,13.5055],[100.4066,13.5057],[100.4066,13.506],[100.4066,13.5062],[100.4066,13.5064],[100.4065,13.5069],[100.4065,13.5074],[100.4065,13.5079],[100.4065,13.5084],[100.4065,13.5089],[100.4065,13.5094],[100.4065,13.5095],[100.4065,13.5114],[100.4065,13.5135],[100.4065,13.5156],[100.4065,13.5157],[100.4065,13.5158],[100.4064,13.5162],[100.4064,13.5166],[100.4064,13.517],[100.4064,13.5175],[100.4064,13.5179],[100.4064,13.5183],[100.4064,13.5187],[100.4064,13.5188],[100.4064,13.519],[100.4065,13.5193],[100.4065,13.5195],[100.4065,13.5197],[100.4065,13.5198],[100.4065,13.52],[100.4066,13.5202],[100.4066,13.5205],[100.4067,13.5207],[100.4073,13.5225],[100.4073,13.5227],[100.4074,13.5229],[100.4074,13.5231],[100.4074,13.5232],[100.4074,13.5234],[100.4074,13.5235],[100.4075,13.524],[100.4075,13.5245],[100.4075,13.525],[100.4076,13.5252],[100.4076,13.5255],[100.4076,13.5258],[100.4076,13.526],[100.4076,13.5261],[100.4076,13.5263],[100.4076,13.5266],[100.4075,13.5268],[100.4075,13.5269],[100.4075,13.527],[100.4075,13.5272],[100.4075,13.5275],[100.4075,13.5278],[100.4075,13.5279],[100.4075,13.528],[100.4075,13.5282],[100.4075,13.5284],[100.4075,13.5286],[100.4075,13.5288],[100.4075,13.5289],[100.4075,13.529],[100.4074,13.5292],[100.4074,13.5294],[100.4074,13.5296],[100.4073,13.5298],[100.4073,13.5299],[100.4073,13.53],[100.4073,13.5302],[100.4073,13.5304],[100.4072,13.5312],[100.4072,13.532],[100.4071,13.5325],[100.4071,13.5328],[100.4071,13.5331],[100.4071,13.5333],[100.407,13.5335],[100.407,13.5336],[100.407,13.5337],[100.407,13.5338],[100.407,13.5339],[100.407,13.5341],[100.407,13.5345],[100.407,13.5348],[100.407,13.5351],[100.4071,13.5351],[100.4071,13.5353],[100.4096,13.5362],[100.4096,13.5363],[100.4096,13.5365],[100.4097,13.5367],[100.4097,13.5369],[100.4097,13.5371],[100.4097,13.5372],[100.4098,13.5373],[100.4158,13.5397],[100.416,13.5398],[100.4191,13.5431],[100.4192,13.5434],[100.4194,13.5441],[100.4195,13.5443],[100.4195,13.5444],[100.4195,13.5446],[100.4196,13.5448],[100.4196,13.5449],[100.4196,13.545],[100.4196,13.5451],[100.4196,13.5453],[100.4196,13.5455],[100.4195,13.5456],[100.4195,13.5458],[100.4195,13.546],[100.4194,13.5463],[100.4193,13.5465],[100.4191,13.5471],[100.419,13.5472],[100.4157,13.5516],[100.4156,13.5517],[100.4151,13.5529],[100.4151,13.553],[100.4151,13.5531],[100.415,13.5532],[100.415,13.5534],[100.415,13.5536],[100.415,13.5538],[100.415,13.5541],[100.415,13.5549],[100.415,13.5558],[100.4151,13.5559],[100.4151,13.556],[100.4151,13.5561],[100.415,13.5562],[100.415,13.5563],[100.394,13.5567],[100.394,13.5569],[100.3939,13.5571],[100.3939,13.5573],[100.3939,13.5574],[100.3938,13.5576],[100.3938,13.5578],[100.3938,13.558],[100.3938,13.5581],[100.3937,13.5585],[100.3937,13.5586],[100.3936,13.5591],[100.3935,13.5595],[100.3934,13.56],[100.3912,13.5663],[100.3911,13.5665],[100.3911,13.5667],[100.3911,13.5669],[100.391,13.5671],[100.391,13.5673],[100.391,13.5675],[100.391,13.5676],[100.391,13.5677],[100.391,13.5679],[100.391,13.568],[100.391,13.5682],[100.391,13.5683],[100.3909,13.5685],[100.3875,13.5734],[100.3875,13.5735],[100.3874,13.5736],[100.3874,13.5737],[100.3874,13.5738],[100.3874,13.5739],[100.3874,13.574],[100.3868,13.5745],[100.3868,13.5746],[100.3863,13.5751],[100.3863,13.5752],[100.3863,13.5753],[100.3863,13.5754],[100.3862,13.5755],[100.3863,13.5756],[100.3863,13.5757],[100.3865,13.5764],[100.3865,13.5766],[100.3866,13.5768],[100.3866,13.5769],[100.3866,13.577],[100.3866,13.5771],[100.3866,13.5773],[100.3866,13.5774],[100.3866,13.5775],[100.3853,13.5796],[100.3853,13.5798],[100.3853,13.5799],[100.3852,13.5801],[100.3852,13.5802],[100.3852,13.5804],[100.3852,13.5805],[100.3852,13.5807],[100.3852,13.5809],[100.3852,13.5812],[100.3852,13.5814],[100.3852,13.5816],[100.3853,13.5818],[100.3853,13.582],[100.3853,13.5822],[100.3854,13.5825],[100.3854,13.5828],[100.3855,13.5831],[100.3855,13.5834],[100.3855,13.5838],[100.3855,13.5841],[100.3855,13.5845],[100.3855,13.5848],[100.3855,13.5852],[100.3855,13.5854],[100.3855,13.5855],[100.3855,13.5856],[100.3855,13.5858],[100.3855,13.5859],[100.3851,13.5868],[100.385,13.587],[100.3846,13.5877],[100.3845,13.5878],[100.3845,13.5879],[100.3845,13.588],[100.3845,13.5881],[100.3845,13.5882],[100.3845,13.5883],[100.3845,13.5884],[100.3845,13.5886],[100.3845,13.5887],[100.3844,13.5888],[100.3835,13.5903],[100.3834,13.5904],[100.3817,13.5914],[100.3793,13.5935],[100.3792,13.5937],[100.3789,13.5943],[100.3789,13.5944],[100.3788,13.5945],[100.3788,13.5946],[100.3788,13.5947],[100.3788,13.5949],[100.3788,13.595],[100.3788,13.5951],[100.3789,13.5952],[100.3789,13.5953],[100.3789,13.5954],[100.3791,13.5958],[100.3791,13.596],[100.3792,13.5961],[100.3792,13.5963],[100.3792,13.5965],[100.3792,13.5966],[100.3792,13.5968],[100.3792,13.597],[100.3792,13.5971],[100.3792,13.5973],[100.3792,13.5975],[100.3791,13.5976],[100.3791,13.5979],[100.379,13.5981],[100.379,13.5983],[100.3789,13.5985],[100.3789,13.5987],[100.3789,13.5989],[100.3789,13.5991],[100.3789,13.5993],[100.3789,13.6001],[100.3789,13.6002],[100.379,13.6004],[100.379,13.6006],[100.379,13.6008],[100.379,13.601],[100.379,13.6012],[100.379,13.6013],[100.379,13.6014],[100.379,13.6016],[100.3789,13.6017],[100.3789,13.6019],[100.3789,13.602],[100.3789,13.6022],[100.3789,13.6025],[100.3789,13.6027],[100.3789,13.6029],[100.3789,13.6031],[100.3789,13.6033],[100.379,13.6035],[100.3791,13.6039],[100.3792,13.6041],[100.3792,13.6043],[100.3792,13.6045],[100.3793,13.6047],[100.3793,13.6049],[100.3793,13.6052],[100.3793,13.6054],[100.3793,13.6056],[100.3793,13.6058],[100.3793,13.606],[100.3793,13.6061],[100.3793,13.6063],[100.3793,13.6065],[100.3793,13.6067],[100.3793,13.6069],[100.3793,13.6071],[100.3793,13.6072],[100.3794,13.6075],[100.3794,13.6077],[100.3794,13.608],[100.3794,13.6083],[100.3794,13.6084],[100.3794,13.6085],[100.3794,13.6088],[100.3794,13.6091],[100.3794,13.6094],[100.3794,13.6097],[100.3794,13.6101],[100.3793,13.6104],[100.3793,13.6107],[100.3792,13.6111],[100.3791,13.6127],[100.3789,13.6144],[100.3788,13.6151],[100.3788,13.6152],[100.3788,13.6155],[100.3788,13.6157],[100.3788,13.616],[100.3787,13.6162],[100.3787,13.6165],[100.3786,13.6168],[100.3786,13.617],[100.372,13.6209],[100.3718,13.6245],[100.3674,13.6296],[100.3666,13.6338],[100.355,13.6376],[100.355,13.6377],[100.355,13.6378],[100.3549,13.638],[100.3549,13.6381],[100.3549,13.6383],[100.3549,13.6384],[100.3549,13.6385],[100.3549,13.6386],[100.3518,13.6388],[100.3517,13.6388],[100.3447,13.6425],[100.3448,13.644],[100.3449,13.6459],[100.345,13.6481],[100.3451,13.6507],[100.3451,13.6533],[100.3449,13.6543],[100.3398,13.6549],[100.3395,13.6549],[100.3392,13.6556],[100.3394,13.6573],[100.3411,13.66],[100.3412,13.6614],[100.3406,13.6637],[100.3402,13.6658],[100.3396,13.6676],[100.3389,13.6703],[100.3385,13.6727],[100.3338,13.6809],[100.3335,13.6819],[100.3333,13.6838],[100.3326,13.6866],[100.3319,13.689],[100.3314,13.6924],[100.3312,13.6937],[100.3311,13.6959],[100.3307,13.6979],[100.3308,13.6995],[100.3356,13.7055],[100.3364,13.7087],[100.337,13.7124],[100.3374,13.7155],[100.3363,13.722],[100.2429,13.6743],[100.064,13.6679],[100.0294,13.5083],[100.0796,13.4242]]]},"properties":{"pro_code":"74","pro_th":"สมุทรสาคร","pro_en":"Samut Sakhon","reg_nesdb":"West","reg_royin":"Central"}},
{"type":"Feature","geometry":{"type":"Polygon","coordinates":[[[100.0294,13.5083],[99.9141,13.509],[99.8561,13.3276],[99.86,13.2442],[99.9531,13.2975],[100.0796,13.4242],[100.0294,13.5083]]]},"properties":{"pro_code":"75","pro_th":"สมุทรสงคราม","pro_en":"Samut Songkhram","reg_nesdb":"West","reg_royin":"Central"}},
{"type":"Feature","geometry":{"type":"Polygon","coordinates":[[[99.2832,14.9979],[99.3209,14.9492],[99.2939,14.8314],[99.3588,14.7714],[99.4364,14.7742],[99.481,14.7088],[99.5717,14.7323],[99.5696,14.7885],[99.6552,14.8038],[99.8015,14.7345],[99.8248,14.2669],[99.7602,14.1715],[99.7681,14.0946],[99.8212,14.061],[99.9445,14.1348],[100.2342,14.1751],[100.28,14.3508],[100.2527,14.4811],[100.1917,14.6128],[100.2402,14.6508],[100.2034,14.7153],[100.2265,14.7943],[100.2017,14.9543],[100.1367,14.9131],[100.1327,14.9463],[100.0397,14.961],[100.0408,14.9193],[99.9681,14.9018],[99.7311,14.9637],[99.6275,14.9883],[99.6305,14.9378],[99.4449,14.9834],[99.4197,15.0486],[99.3391,15.0815],[99.2832,14.9979]]]},"properties":{"pro_code":"72","pro_th":"สุพรรณบุรี","pro_en":"Suphan Buri","reg_nesdb":"West","reg_royin":"Central"}},
{"type":"Feature","geometry":{"type":"Polygon","coordinates":[[[100.3363,13.722],[100.3363,13.7221],[100.3363,13.7222],[100.3363,13.7223],[100.3363,13.7224],[100.3363,13.7225],[100.3363,13.7227],[100.3362,13.7227],[100.3362,13.7228],[100.3362,13.7229],[100.3356,13.7256],[100.3362,13.7264],[100.3362,13.7265],[100.3363,13.7266],[100.3363,13.7267],[100.3363,13.7268],[100.3362,13.7269],[100.3362,13.727],[100.3355,13.7295],[100.3354,13.7298],[100.3354,13.73],[100.3354,13.7303],[100.3353,13.7305],[100.3353,13.7308],[100.3353,13.731],[100.3353,13.7313],[100.3352,13.7315],[100.3352,13.7316],[100.3353,13.7317],[100.3355,13.7353],[100.3353,13.7355],[100.335,13.7363],[100.335,13.7365],[100.3349,13.7366],[100.3349,13.7367],[100.3349,13.7368],[100.3349,13.7369],[100.3349,13.737],[100.3356,13.7379],[100.3356,13.738],[100.3357,13.7381],[100.3356,13.7381],[100.3356,13.7382],[100.3356,13.7384],[100.3356,13.7387],[100.3356,13.7389],[100.3356,13.7391],[100.3356,13.7394],[100.3356,13.7395],[100.3355,13.7406],[100.3354,13.7418],[100.3353,13.7429],[100.3352,13.744],[100.3351,13.7444],[100.3351,13.7448],[100.3351,13.7451],[100.335,13.7455],[100.335,13.7459],[100.335,13.7462],[100.335,13.7464],[100.335,13.7465],[100.335,13.7468],[100.3351,13.7471],[100.3351,13.7473],[100.335,13.7476],[100.335,13.7479],[100.335,13.7481],[100.335,13.7484],[100.3349,13.7486],[100.3349,13.7488],[100.3349,13.749],[100.3346,13.7498],[100.3346,13.7501],[100.3345,13.7503],[100.3345,13.7505],[100.3345,13.7508],[100.3345,13.7509],[100.3345,13.751],[100.3345,13.7512],[100.3345,13.7513],[100.3345,13.7514],[100.3345,13.7515],[100.3345,13.7517],[100.3344,13.7525],[100.3334,13.7529],[100.3334,13.753],[100.3333,13.7543],[100.333,13.7573],[100.333,13.7575],[100.3329,13.7577],[100.3321,13.7581],[100.3321,13.7584],[100.3314,13.7587],[100.3313,13.7589],[100.3313,13.759],[100.3312,13.7593],[100.3312,13.7597],[100.3311,13.7601],[100.3311,13.7605],[100.331,13.7605],[100.3307,13.7643],[100.3291,13.7647],[100.3294,13.7668],[100.3297,13.7678],[100.33,13.7687],[100.3303,13.7702],[100.3305,13.7724],[100.3308,13.7746],[100.3307,13.7764],[100.3305,13.7792],[100.3305,13.7824],[100.3306,13.7852],[100.3308,13.7875],[100.3309,13.7894],[100.3308,13.7912],[100.3307,13.793],[100.3305,13.795],[100.3302,13.7967],[100.3301,13.7979],[100.3298,13.8008],[100.3288,13.803],[100.3279,13.8042],[100.2642,13.921],[100.2981,13.9629],[100.2623,13.9981],[100.2799,14.1254],[100.2837,14.1701],[100.2342,14.1751],[99.9445,14.1348],[99.8212,14.061],[99.8762,13.9619],[99.926,13.9382],[99.9004,13.841],[99.9689,13.8097],[99.9424,13.7446],[100.0277,13.7535],[100.064,13.6679],[100.2429,13.6743],[100.3363,13.722]]]},"properties":{"pro_code":"73","pro_th":"นครปฐม","pro_en":"Nakhon Pathom","reg_nesdb":"West","reg_royin":"Central"}},
{"type":"Feature","geometry":{"type":"Polygon","coordinates":[[[100.064,13.6679],[100.0277,13.7535],[99.9424,13.7446],[99.9689,13.8097],[99.9004,13.841],[99.926,13.9382],[99.8762,13.9619],[99.811,13.8091],[99.6671,13.8461],[99.5506,13.7595],[99.4702,13.8063],[99.1676,13.7261],[99.21,13.2076],[99.2714,13.149],[99.3499,13.2433],[99.4417,13.184],[99.6374,13.2022],[99.7067,13.322],[99.8561,13.3276],[99.9141,13.509],[100.0294,13.5083],[100.064,13.6679]]]},"properties":{"pro_code":"70","pro_th":"ราชบุรี","pro_en":"Ratchaburi","reg_nesdb":"West","reg_royin":"West"}},
{"type":"Feature","geometry":{"type":"Polygon","coordinates":[[[104.0119,17.811],[104.003,17.8969],[104.0713,17.878],[104.1341,17.9558],[104.1137,18.0051],[104.1903,18.0234],[103.969,18.3381],[103.8589,18.2841],[103.8219,18.3367],[103.6976,18.3428],[103.6095,18.4043],[103.4082,18.4488],[103.3103,18.4327],[103.2453,18.3684],[103.2984,18.3041],[103.2599,18.2487],[103.367,18.1642],[103.2956,18.1197],[103.2996,18.0813],[103.4058,17.9924],[103.4979,17.9901],[103.4964,18.0648],[103.5425,18.0883],[103.6396,18.0142],[103.6246,17.9691],[103.7474,17.9121],[103.7635,17.9554],[103.7947,17.8422],[103.796,17.8771],[103.9063,17.8805],[103.942,17.7854],[104.0119,17.811]]]},"properties":{"pro_code":"38","pro_th":"บึงกาฬ","pro_en":"Bueng Kan","reg_nesdb":"Northeast","reg_royin":"Northeast"}},
{"type":"Feature","geometry":{"type":"Polygon","coordinates":[[[98.5586,15.6511],[98.5855,15.471],[98.5564,15.3347],[98.4592,15.3861],[98.3881,15.3035],[98.4021,15.2544],[98.2984,15.3131],[98.2579,15.2235],[98.1977,15.2325],[98.1842,15.0965],[98.2351,15.0428],[98.2089,14.9829],[98.2472,14.8318],[98.4375,14.613],[98.4615,14.531],[98.4921,14.54],[98.6005,14.3238],[98.9597,14.0966],[99.0188,13.9473],[99.1095,13.8908],[99.0994,13.8378],[99.1676,13.7261],[99.4702,13.8063],[99.5506,13.7595],[99.6671,13.8461],[99.811,13.8091],[99.8762,13.9619],[99.8212,14.061],[99.7681,14.0946],[99.7602,14.1715],[99.8248,14.2669],[99.8015,14.7345],[99.6552,14.8038],[99.5696,14.7885],[99.5717,14.7323],[99.481,14.7088],[99.4364,14.7742],[99.3588,14.7714],[99.2939,14.8314],[99.3209,14.9492],[99.2832,14.9979],[99.0293,15.0486],[98.9844,15.1803],[98.7026,15.5015],[98.6479,15.6332],[98.5586,15.6511]]]},"properties":{"pro_code":"71","pro_th":"กาญจนบุรี","pro_en":"Kanchanaburi","reg_nesdb":"West","reg_royin":"West"}},
{"type":"Feature","geometry":{"type":"Polygon","coordinates":[[[102.0694,16.8891],[102.1877,16.858],[102.2961,16.8909],[102.3465,16.8172],[102.6108,16.7713],[102.6694,16.9937],[102.5202,17.1003],[102.5036,17.1951],[102.5929,17.2655],[102.4395,17.2805],[102.3182,17.6788],[102.0828,17.635],[102.1286,17.4922],[101.9846,17.4427],[102.0206,17.3412],[101.9861,17.3233],[102.0999,17.1805],[102.0377,17.2208],[102.0164,17.1399],[102.1535,17.0274],[102.0299,16.9505],[102.0694,16.8891]]]},"properties":{"pro_code":"39","pro_th":"หนองบัวลำภู","pro_en":"Nong Bua Lamphu","reg_nesdb":"Northeast","reg_royin":"Northeast"}},
{"type":"Feature","geometry":{"type":"Polygon","coordinates":[[[100.4274,15.0618],[100.4697,15.0284],[100.4207,14.9295],[100.4814,14.8117],[100.4649,14.7187],[100.5092,14.673],[100.6024,14.6538],[100.7774,14.796],[100.9919,14.7404],[101.0238,14.8091],[101.0733,14.7634],[101.0995,14.9085],[101.2585,14.913],[101.3991,15.0725],[101.3825,15.3332],[101.4059,15.7366],[101.3484,15.7504],[101.2881,15.5311],[101.3055,15.3927],[101.2021,15.3256],[101.0823,15.3523],[100.9856,15.3247],[100.9753,15.4167],[100.9323,15.4145],[100.9269,15.4832],[100.8322,15.5637],[100.7451,15.5119],[100.7687,15.462],[100.6437,15.4168],[100.6131,15.2437],[100.4274,15.0618]]]},"properties":{"pro_code":"16","pro_th":"ลพบุรี","pro_en":"Lopburi","reg_nesdb":"Central","reg_royin":"Central"}},
{"type":"Feature","geometry":{"type":"Polygon","coordinates":[[[101.3484,15.7504],[101.4059,15.7366],[101.3825,15.3332],[101.6187,15.3641],[101.6514,15.4012],[101.7639,15.3811],[101.7996,15.4233],[101.8774,15.3914],[101.9331,15.4565],[102.0356,15.4795],[102.1557,15.7422],[102.3279,15.8037],[102.3848,15.9973],[102.2803,16.0759],[102.4144,16.2513],[102.4594,16.3942],[102.4028,16.466],[102.3732,16.4364],[102.2059,16.5033],[102.0678,16.4938],[101.9556,16.6309],[101.8292,16.6577],[101.7744,16.6287],[101.7508,16.668],[101.5598,16.7307],[101.5719,16.6483],[101.5106,16.6769],[101.5195,16.5495],[101.3984,16.4008],[101.3534,16.2601],[101.3775,16.1871],[101.3229,16.041],[101.3743,15.9195],[101.3172,15.7898],[101.3484,15.7504]]]},"properties":{"pro_code":"36","pro_th":"ชัยภูมิ","pro_en":"Chaiyaphum","reg_nesdb":"Northeast","reg_royin":"Northeast"}},
{"type":"Feature","geometry":{"type":"Polygon","coordinates":[[[100.3516,15.1199],[100.2191,15.0426],[100.291,14.9563],[100.2017,14.9543],[100.2265,14.7943],[100.3291,14.8019],[100.4649,14.7187],[100.4814,14.8117],[100.4207,14.9295],[100.4697,15.0284],[100.4274,15.0618],[100.3516,15.1199]]]},"properties":{"pro_code":"17","pro_th":"สิงห์บุรี","pro_en":"Sing Buri","reg_nesdb":"Central","reg_royin":"Central"}},
{"type":"Feature","geometry":{"type":"Polygon","coordinates":[[[100.2342,14.1751],[100.2837,14.1701],[100.2799,14.1254],[100.3442,14.1156],[100.5539,14.1112],[100.8231,14.2439],[100.8235,14.3295],[100.7728,14.3297],[100.7971,14.3907],[100.7597,14.4135],[100.7807,14.5675],[100.656,14.6061],[100.6751,14.5571],[100.6032,14.556],[100.5753,14.5969],[100.6024,14.6538],[100.5092,14.673],[100.4967,14.4595],[100.4175,14.4441],[100.3923,14.51],[100.2527,14.4811],[100.28,14.3508],[100.2342,14.1751]]]},"properties":{"pro_code":"14","pro_th":"พระนครศรีอยุธยา","pro_en":"Phra Nakhon Si Ayutthaya","reg_nesdb":"Central","reg_royin":"Central"}},
{"type":"Feature","geometry":{"type":"Polygon","coordinates":[[[104.5113,15.5635],[104.5866,15.568],[104.6379,15.647],[104.6206,15.6881],[104.7416,15.6587],[104.8877,15.545],[104.9336,15.6403],[104.8957,15.6528],[104.9072,15.7606],[104.958,15.7866],[105.0039,16.0207],[105.0603,16.098],[104.9799,16.2783],[104.8542,16.2014],[104.7652,16.1963],[104.8228,16.1567],[104.8139,16.098],[104.562,16.099],[104.4539,15.9013],[104.4194,15.6978],[104.439,15.619],[104.5113,15.5635]]]},"properties":{"pro_code":"37","pro_th":"อำนาจเจริญ","pro_en":"Amnat Charoen","reg_nesdb":"Northeast","reg_royin":"Northeast"}},
{"type":"Feature","geometry":{"type":"Polygon","coordinates":[[[100.2527,14.4811],[100.3923,14.51],[100.4175,14.4441],[100.4967,14.4595],[100.5092,14.673],[100.4649,14.7187],[100.3291,14.8019],[100.2265,14.7943],[100.2034,14.7153],[100.2402,14.6508],[100.1917,14.6128],[100.2527,14.4811]]]},"properties":{"pro_code":"15","pro_th":"อ่างทอง","pro_en":"Ang Thong","reg_nesdb":"Central","reg_royin":"Central"}},
{"type":"Feature","geometry":{"type":"Polygon","coordinates":[[[104.5113,15.5635],[104.3831,15.536],[104.3818,15.3967],[104.4468,15.343],[104.4061,15.289],[104.5229,15.2529],[104.6061,15.2739],[104.7148,15.1954],[104.7004,15.1571],[104.7371,15.1623],[104.6707,15.0987],[104.6845,14.951],[104.8055,14.8969],[104.7985,14.8026],[104.8895,14.6511],[104.8507,14.6596],[104.8264,14.6066],[104.8625,14.4975],[104.8288,14.4407],[104.907,14.3995],[104.9938,14.3794],[105.021,14.2434],[105.0831,14.209],[105.1493,14.246],[105.1746,14.3443],[105.4291,14.4163],[105.5349,14.5587],[105.5152,14.6956],[105.5466,14.7316],[105.5112,14.8002],[105.58,14.878],[105.5526,14.9497],[105.6247,14.9753],[105.4613,15.1158],[105.4939,15.2043],[105.5922,15.2743],[105.5741,15.3283],[105.5035,15.3156],[105.469,15.355],[105.5918,15.4258],[105.6347,15.663],[105.5555,15.7483],[105.4342,15.7551],[105.3942,15.8026],[105.3422,15.9203],[105.4241,16.0059],[105.0603,16.098],[105.0039,16.0207],[104.958,15.7866],[104.9072,15.7606],[104.8957,15.6528],[104.9336,15.6403],[104.8877,15.545],[104.7416,15.6587],[104.6206,15.6881],[104.6379,15.647],[104.5866,15.568],[104.5113,15.5635]]]},"properties":{"pro_code":"34","pro_th":"อุบลราชธานี","pro_en":"Ubon Ratchathani","reg_nesdb":"Northeast","reg_royin":"Northeast"}},
{"type":"Feature","geometry":{"type":"Polygon","coordinates":[[[104.7652,16.1963],[104.6664,16.2436],[104.6257,16.2117],[104.4989,16.3409],[104.3515,16.3254],[104.2303,16.1688],[104.1151,16.1147],[104.1065,15.9906],[104.0113,15.9582],[104.0365,15.8692],[103.9998,15.7965],[104.0716,15.8383],[104.1344,15.7984],[104.1213,15.6984],[104.1466,15.714],[104.2098,15.6187],[104.1214,15.5633],[104.2453,15.374],[104.4061,15.289],[104.4468,15.343],[104.3818,15.3967],[104.3831,15.536],[104.5113,15.5635],[104.439,15.619],[104.4194,15.6978],[104.4539,15.9013],[104.562,16.099],[104.8139,16.098],[104.8228,16.1567],[104.7652,16.1963]]]},"properties":{"pro_code":"35","pro_th":"ยโสธร","pro_en":"Yasothon","reg_nesdb":"Northeast","reg_royin":"Northeast"}},
{"type":"Feature","geometry":{"type":"Polygon","coordinates":[[[100.3279,13.8042],[100.4085,13.8018],[100.4123,13.8015],[100.4696,13.7946],[100.4695,13.7943],[100.4656,13.7895],[100.4656,13.7891],[100.4661,13.7888],[100.4668,13.7889],[100.5151,13.8134],[100.5151,13.8135],[100.5066,13.817],[100.5065,13.8172],[100.5065,13.8175],[100.5066,13.8179],[100.5067,13.8186],[100.5071,13.8197],[100.5071,13.8199],[100.5067,13.8206],[100.5066,13.8211],[100.5066,13.8213],[100.5087,13.8235],[100.5099,13.8236],[100.5099,13.8239],[100.51,13.8243],[100.5134,13.8251],[100.5134,13.8253],[100.5134,13.8256],[100.5432,13.8498],[100.5434,13.85],[100.5433,13.85],[100.544,13.8521],[100.5442,13.8529],[100.5446,13.8543],[100.5455,13.858],[100.5455,13.8582],[100.5456,13.8586],[100.5459,13.8599],[100.5462,13.8616],[100.5465,13.8634],[100.5469,13.8646],[100.548,13.8687],[100.5486,13.8712],[100.549,13.8731],[100.5492,13.8738],[100.5494,13.8759],[100.5494,13.8776],[100.5496,13.8782],[100.5542,13.8956],[100.5547,13.8977],[100.5553,13.9007],[100.5583,13.9115],[100.5599,13.9176],[100.5606,13.9201],[100.5608,13.921],[100.5614,13.9235],[100.562,13.9264],[100.5623,13.9285],[100.5627,13.9303],[100.5631,13.9323],[100.5637,13.9343],[100.5642,13.9367],[100.5646,13.9385],[100.5653,13.9418],[100.5654,13.9424],[100.5666,13.9469],[100.5674,13.9496],[100.5678,13.9513],[100.5013,13.9369],[100.3648,13.9909],[100.3442,14.1156],[100.2799,14.1254],[100.2623,13.9981],[100.2981,13.9629],[100.2642,13.921],[100.3279,13.8042]]]},"properties":{"pro_code":"12","pro_th":"นนทบุรี","pro_en":"Nonthaburi","reg_nesdb":"Central","reg_royin":"Central"}},
{"type":"Feature","geometry":{"type":"Polygon","coordinates":[[[103.2269,14.327],[103.6866,14.4393],[103.706,14.379],[103.7743,14.36],[104.0569,14.344],[104.0481,14.6751],[103.9857,14.8003],[103.9033,14.8476],[104.0213,15.0485],[103.9668,15.1644],[103.9725,15.2802],[104.0922,15.3581],[104.0591,15.4061],[103.9878,15.4069],[103.8886,15.4695],[103.3947,15.4315],[103.3412,15.4054],[103.1111,15.4816],[103.0893,15.4198],[103.2496,15.3066],[103.3485,15.3469],[103.5034,15.3068],[103.4192,15.203],[103.425,14.9283],[103.2477,14.7599],[103.2689,14.7013],[103.2097,14.569],[103.2269,14.327]]]},"properties":{"pro_code":"32","pro_th":"สุรินทร์","pro_en":"Surin","reg_nesdb":"Northeast","reg_royin":"Northeast"}},
{"type":"Feature","geometry":{"type":"Polygon","coordinates":[[[100.3442,14.1156],[100.3648,13.9909],[100.5013,13.9369],[100.5678,13.9513],[100.6082,13.9425],[100.6069,13.954],[100.6223,13.9483],[100.6229,13.948],[100.6235,13.9473],[100.6238,13.9447],[100.6243,13.9419],[100.6249,13.9386],[100.6253,13.9366],[100.64,13.9342],[100.6399,13.9336],[100.6397,13.9328],[100.6399,13.932],[100.6902,13.9304],[100.6902,13.9286],[100.6879,13.923],[100.6877,13.9215],[100.6876,13.9176],[100.7242,13.9177],[100.7298,13.9178],[100.7757,13.9246],[100.7806,13.9258],[100.9124,13.9454],[100.9135,13.961],[100.9143,14.2212],[100.9517,14.2721],[100.8231,14.2439],[100.5539,14.1112],[100.3442,14.1156]]]},"properties":{"pro_code":"13","pro_th":"ปทุมธานี","pro_en":"Pathum Thani","reg_nesdb":"Central","reg_royin":"Central"}},
{"type":"Feature","geometry":{"type":"Polygon","coordinates":[[[100.4107,13.4915],[100.4579,13.487],[100.4578,13.4871],[100.4541,13.5024],[100.4463,13.5407],[100.4463,13.5408],[100.4447,13.5522],[100.4445,13.553],[100.4445,13.5538],[100.4445,13.5547],[100.4446,13.5557],[100.4446,13.5562],[100.4466,13.5838],[100.4465,13.585],[100.4465,13.5863],[100.452,13.5991],[100.4521,13.5997],[100.4522,13.6004],[100.4524,13.6016],[100.4668,13.6038],[100.4667,13.6034],[100.4665,13.6027],[100.4664,13.6015],[100.4665,13.6004],[100.4672,13.5986],[100.4671,13.5981],[100.4671,13.5973],[100.4735,13.5953],[100.4736,13.5957],[100.4733,13.5969],[100.4734,13.5979],[100.4755,13.6015],[100.4755,13.6019],[100.477,13.6025],[100.4774,13.6023],[100.4775,13.602],[100.4776,13.6016],[100.4773,13.6003],[100.4773,13.5995],[100.4773,13.5992],[100.4811,13.5972],[100.4814,13.5958],[100.4816,13.5945],[100.4818,13.5935],[100.4988,13.5923],[100.4989,13.5929],[100.4989,13.5934],[100.499,13.594],[100.499,13.5944],[100.4993,13.5953],[100.5117,13.5975],[100.5117,13.5976],[100.5118,13.5979],[100.5118,13.5982],[100.5119,13.5985],[100.5139,13.6029],[100.5209,13.6054],[100.5207,13.6089],[100.5206,13.6089],[100.5206,13.609],[100.5171,13.6132],[100.5168,13.6139],[100.5168,13.6145],[100.5166,13.6154],[100.5166,13.6162],[100.5164,13.617],[100.516,13.6177],[100.5162,13.6183],[100.5162,13.6188],[100.5162,13.6197],[100.5154,13.6211],[100.5151,13.6223],[100.515,13.6235],[100.5148,13.6253],[100.5148,13.6261],[100.5149,13.6266],[100.5148,13.6273],[100.5146,13.6277],[100.5145,13.6281],[100.5172,13.6337],[100.5174,13.634],[100.5165,13.636],[100.5162,13.6391],[100.5216,13.6428],[100.5216,13.643],[100.5218,13.6437],[100.5219,13.6449],[100.522,13.646],[100.5222,13.6469],[100.5223,13.6479],[100.5223,13.6489],[100.5224,13.6502],[100.5225,13.651],[100.5226,13.6517],[100.5227,13.6529],[100.5228,13.6538],[100.523,13.6549],[100.5232,13.6562],[100.5233,13.6572],[100.5233,13.6583],[100.5232,13.6592],[100.5232,13.6603],[100.523,13.6611],[100.5229,13.6617],[100.5169,13.6685],[100.5167,13.6695],[100.5167,13.6704],[100.5167,13.6711],[100.5169,13.6724],[100.5212,13.6793],[100.5213,13.6797],[100.5216,13.6795],[100.522,13.6791],[100.5278,13.6738],[100.5283,13.6734],[100.5511,13.6787],[100.5513,13.6795],[100.5516,13.6806],[100.5517,13.6813],[100.5518,13.6823],[100.5519,13.683],[100.552,13.6837],[100.5523,13.6849],[100.5526,13.686],[100.5526,13.687],[100.5526,13.6879],[100.5526,13.6887],[100.5525,13.689],[100.5524,13.6898],[100.5524,13.6908],[100.5522,13.6916],[100.551,13.6959],[100.5508,13.6972],[100.5508,13.6982],[100.5507,13.6996],[100.551,13.7007],[100.5512,13.7018],[100.5543,13.7055],[100.555,13.7059],[100.5827,13.6972],[100.5837,13.6965],[100.5879,13.6909],[100.588,13.6907],[100.5886,13.6892],[100.5888,13.6883],[100.5893,13.6869],[100.5894,13.6862],[100.5894,13.6856],[100.5893,13.6848],[100.5893,13.6844],[100.589,13.6836],[100.5889,13.6832],[100.5887,13.6824],[100.5794,13.6686],[100.5794,13.6685],[100.5793,13.6683],[100.6163,13.6596],[100.6308,13.6559],[100.6434,13.6529],[100.6448,13.6526],[100.6479,13.6519],[100.6524,13.6655],[100.6526,13.6668],[100.6668,13.6683],[100.6666,13.6672],[100.6933,13.6571],[100.6933,13.6565],[100.6932,13.6559],[100.6931,13.6551],[100.693,13.6546],[100.6929,13.6539],[100.6928,13.6534],[100.6928,13.653],[100.6928,13.6525],[100.6928,13.652],[100.6929,13.6514],[100.6976,13.6547],[100.6979,13.6561],[100.6981,13.6574],[100.6983,13.6587],[100.6985,13.6602],[100.6987,13.6613],[100.699,13.6629],[100.7038,13.6728],[100.7041,13.6738],[100.7043,13.6748],[100.7046,13.6763],[100.7046,13.6771],[100.7047,13.6778],[100.7049,13.6785],[100.7052,13.6792],[100.7053,13.6798],[100.7054,13.6802],[100.7076,13.6859],[100.7078,13.6869],[100.7094,13.6908],[100.7095,13.6916],[100.7096,13.6924],[100.7097,13.6933],[100.7099,13.6944],[100.7101,13.6952],[100.7113,13.6949],[100.7113,13.695],[100.7114,13.6954],[100.7115,13.6957],[100.7116,13.6963],[100.7117,13.6971],[100.7118,13.6982],[100.712,13.6995],[100.7121,13.7007],[100.712,13.7019],[100.7119,13.7028],[100.7117,13.7044],[100.7114,13.7057],[100.7112,13.7077],[100.7109,13.7094],[100.7106,13.7109],[100.7103,13.7123],[100.7101,13.7136],[100.7099,13.715],[100.7097,13.7169],[100.7097,13.7179],[100.7479,13.7163],[100.7606,13.7164],[100.8311,13.7057],[100.8557,13.7004],[100.8557,13.7006],[100.9306,13.8048],[100.9323,13.8071],[100.936,13.8118],[100.938,13.8146],[100.9112,13.8449],[100.9128,13.8463],[100.9046,13.8485],[100.9049,13.8503],[100.9049,13.8505],[100.905,13.8524],[100.9052,13.8562],[100.9054,13.8594],[100.9058,13.8603],[100.906,13.8628],[100.906,13.8668],[100.906,13.8708],[100.9059,13.8758],[100.9061,13.8803],[100.9065,13.8838],[100.9066,13.8854],[100.9068,13.8878],[100.9074,13.8923],[100.9076,13.897],[100.9081,13.9014],[100.9087,13.9052],[100.9091,13.9095],[100.9098,13.9141],[100.9103,13.9175],[100.9107,13.9212],[100.9113,13.926],[100.9116,13.9294],[100.9121,13.9328],[100.9125,13.936],[100.9124,13.9454],[100.7806,13.9258],[100.7757,13.9246],[100.7298,13.9178],[100.7242,13.9177],[100.6876,13.9176],[100.6877,13.9215],[100.6879,13.923],[100.6902,13.9286],[100.6902,13.9304],[100.6399,13.932],[100.6397,13.9328],[100.6399,13.9336],[100.64,13.9342],[100.6253,13.9366],[100.6249,13.9386],[100.6243,13.9419],[100.6238,13.9447],[100.6235,13.9473],[100.6229,13.948],[100.6223,13.9483],[100.6069,13.954],[100.6082,13.9425],[100.5678,13.9513],[100.5674,13.9496],[100.5666,13.9469],[100.5654,13.9424],[100.5653,13.9418],[100.5646,13.9385],[100.5642,13.9367],[100.5637,13.9343],[100.5631,13.9323],[100.5627,13.9303],[100.5623,13.9285],[100.562,13.9264],[100.5614,13.9235],[100.5608,13.921],[100.5606,13.9201],[100.5599,13.9176],[100.5583,13.9115],[100.5553,13.9007],[100.5547,13.8977],[100.5542,13.8956],[100.5496,13.8782],[100.5494,13.8776],[100.5494,13.8759],[100.5492,13.8738],[100.549,13.8731],[100.5486,13.8712],[100.548,13.8687],[100.5469,13.8646],[100.5465,13.8634],[100.5462,13.8616],[100.5459,13.8599],[100.5456,13.8586],[100.5455,13.8582],[100.5455,13.858],[100.5446,13.8543],[100.5442,13.8529],[100.544,13.8521],[100.5433,13.85],[100.5434,13.85],[100.5432,13.8498],[100.5134,13.8256],[100.5134,13.8253],[100.5134,13.8251],[100.51,13.8243],[100.5099,13.8239],[100.5099,13.8236],[100.5087,13.8235],[100.5066,13.8213],[100.5066,13.8211],[100.5067,13.8206],[100.5071,13.8199],[100.5071,13.8197],[100.5067,13.8186],[100.5066,13.8179],[100.5065,13.8175],[100.5065,13.8172],[100.5066,13.817],[100.5151,13.8135],[100.5151,13.8134],[100.4668,13.7889],[100.4661,13.7888],[100.4656,13.7891],[100.4656,13.7895],[100.4695,13.7943],[100.4696,13.7946],[100.4123,13.8015],[100.4085,13.8018],[100.3279,13.8042],[100.3288,13.803],[100.3298,13.8008],[100.3301,13.7979],[100.3302,13.7967],[100.3305,13.795],[100.3307,13.793],[100.3308,13.7912],[100.3309,13.7894],[100.3308,13.7875],[100.3306,13.7852],[100.3305,13.7824],[100.3305,13.7792],[100.3307,13.7764],[100.3308,13.7746],[100.3305,13.7724],[100.3303,13.7702],[100.33,13.7687],[100.3297,13.7678],[100.3294,13.7668],[100.3291,13.7647],[100.3307,13.7643],[100.331,13.7605],[100.3311,13.7605],[100.3311,13.7601],[100.3312,13.7597],[100.3312,13.7593],[100.3313,13.759],[100.3313,13.7589],[100.3314,13.7587],[100.3321,13.7584],[100.3321,13.7581],[100.3329,13.7577],[100.333,13.7575],[100.333,13.7573],[100.3333,13.7543],[100.3334,13.753],[100.3334,13.7529],[100.3344,13.7525],[100.3345,13.7517],[100.3345,13.7515],[100.3345,13.7514],[100.3345,13.7513],[100.3345,13.7512],[100.3345,13.751],[100.3345,13.7509],[100.3345,13.7508],[100.3345,13.7505],[100.3345,13.7503],[100.3346,13.7501],[100.3346,13.7498],[100.3349,13.749],[100.3349,13.7488],[100.3349,13.7486],[100.335,13.7484],[100.335,13.7481],[100.335,13.7479],[100.335,13.7476],[100.3351,13.7473],[100.3351,13.7471],[100.335,13.7468],[100.335,13.7465],[100.335,13.7464],[100.335,13.7462],[100.335,13.7459],[100.335,13.7455],[100.3351,13.7451],[100.3351,13.7448],[100.3351,13.7444],[100.3352,13.744],[100.3353,13.7429],[100.3354,13.7418],[100.3355,13.7406],[100.3356,13.7395],[100.3356,13.7394],[100.3356,13.7391],[100.3356,13.7389],[100.3356,13.7387],[100.3356,13.7384],[100.3356,13.7382],[100.3356,13.7381],[100.3357,13.7381],[100.3356,13.738],[100.3356,13.7379],[100.3349,13.737],[100.3349,13.7369],[100.3349,13.7368],[100.3349,13.7367],[100.3349,13.7366],[100.335,13.7365],[100.335,13.7363],[100.3353,13.7355],[100.3355,13.7353],[100.3353,13.7317],[100.3352,13.7316],[100.3352,13.7315],[100.3353,13.7313],[100.3353,13.731],[100.3353,13.7308],[100.3353,13.7305],[100.3354,13.7303],[100.3354,13.73],[100.3354,13.7298],[100.3355,13.7295],[100.3362,13.727],[100.3362,13.7269],[100.3363,13.7268],[100.3363,13.7267],[100.3363,13.7266],[100.3362,13.7265],[100.3362,13.7264],[100.3356,13.7256],[100.3362,13.7229],[100.3362,13.7228],[100.3362,13.7227],[100.3363,13.7227],[100.3363,13.7225],[100.3363,13.7224],[100.3363,13.7223],[100.3363,13.7222],[100.3363,13.7221],[100.3363,13.722],[100.3374,13.7155],[100.337,13.7124],[100.3364,13.7087],[100.3356,13.7055],[100.3308,13.6995],[100.3307,13.6979],[100.3311,13.6959],[100.3312,13.6937],[100.3314,13.6924],[100.3319,13.689],[100.3326,13.6866],[100.3333,13.6838],[100.3335,13.6819],[100.3338,13.6809],[100.3385,13.6727],[100.3389,13.6703],[100.3396,13.6676],[100.3402,13.6658],[100.3406,13.6637],[100.3412,13.6614],[100.3411,13.66],[100.3394,13.6573],[100.3392,13.6556],[100.3395,13.6549],[100.3398,13.6549],[100.3449,13.6543],[100.3451,13.6533],[100.3451,13.6507],[100.345,13.6481],[100.3449,13.6459],[100.3448,13.644],[100.3447,13.6425],[100.3517,13.6388],[100.3518,13.6388],[100.3549,13.6386],[100.3549,13.6385],[100.3549,13.6384],[100.3549,13.6383],[100.3549,13.6381],[100.3549,13.638],[100.355,13.6378],[100.355,13.6377],[100.355,13.6376],[100.3666,13.6338],[100.3674,13.6296],[100.3718,13.6245],[100.372,13.6209],[100.3786,13.617],[100.3786,13.6168],[100.3787,13.6165],[100.3787,13.6162],[100.3788,13.616],[100.3788,13.6157],[100.3788,13.6155],[100.3788,13.6152],[100.3788,13.6151],[100.3789,13.6144],[100.3791,13.6127],[100.3792,13.6111],[100.3793,13.6107],[100.3793,13.6104],[100.3794,13.6101],[100.3794,13.6097],[100.3794,13.6094],[100.3794,13.6091],[100.3794,13.6088],[100.3794,13.6085],[100.3794,13.6084],[100.3794,13.6083],[100.3794,13.608],[100.3794,13.6077],[100.3794,13.6075],[100.3793,13.6072],[100.3793,13.6071],[100.3793,13.6069],[100.3793,13.6067],[100.3793,13.6065],[100.3793,13.6063],[100.3793,13.6061],[100.3793,13.606],[100.3793,13.6058],[100.3793,13.6056],[100.3793,13.6054],[100.3793,13.6052],[100.3793,13.6049],[100.3793,13.6047],[100.3792,13.6045],[100.3792,13.6043],[100.3792,13.6041],[100.3791,13.6039],[100.379,13.6035],[100.3789,13.6033],[100.3789,13.6031],[100.3789,13.6029],[100.3789,13.6027],[100.3789,13.6025],[100.3789,13.6022],[100.3789,13.602],[100.3789,13.6019],[100.3789,13.6017],[100.379,13.6016],[100.379,13.6014],[100.379,13.6013],[100.379,13.6012],[100.379,13.601],[100.379,13.6008],[100.379,13.6006],[100.379,13.6004],[100.3789,13.6002],[100.3789,13.6001],[100.3789,13.5993],[100.3789,13.5991],[100.3789,13.5989],[100.3789,13.5987],[100.3789,13.5985],[100.379,13.5983],[100.379,13.5981],[100.3791,13.5979],[100.3791,13.5976],[100.3792,13.5975],[100.3792,13.5973],[100.3792,13.5971],[100.3792,13.597],[100.3792,13.5968],[100.3792,13.5966],[100.3792,13.5965],[100.3792,13.5963],[100.3792,13.5961],[100.3791,13.596],[100.3791,13.5958],[100.3789,13.5954],[100.3789,13.5953],[100.3789,13.5952],[100.3788,13.5951],[100.3788,13.595],[100.3788,13.5949],[100.3788,13.5947],[100.3788,13.5946],[100.3788,13.5945],[100.3789,13.5944],[100.3789,13.5943],[100.3792,13.5937],[100.3793,13.5935],[100.3817,13.5914],[100.3834,13.5904],[100.3835,13.5903],[100.3844,13.5888],[100.3845,13.5887],[100.3845,13.5886],[100.3845,13.5884],[100.3845,13.5883],[100.3845,13.5882],[100.3845,13.5881],[100.3845,13.588],[100.3845,13.5879],[100.3845,13.5878],[100.3846,13.5877],[100.385,13.587],[100.3851,13.5868],[100.3855,13.5859],[100.3855,13.5858],[100.3855,13.5856],[100.3855,13.5855],[100.3855,13.5854],[100.3855,13.5852],[100.3855,13.5848],[100.3855,13.5845],[100.3855,13.5841],[100.3855,13.5838],[100.3855,13.5834],[100.3855,13.5831],[100.3854,13.5828],[100.3854,13.5825],[100.3853,13.5822],[100.3853,13.582],[100.3853,13.5818],[100.3852,13.5816],[100.3852,13.5814],[100.3852,13.5812],[100.3852,13.5809],[100.3852,13.5807],[100.3852,13.5805],[100.3852,13.5804],[100.3852,13.5802],[100.3852,13.5801],[100.3853,13.5799],[100.3853,13.5798],[100.3853,13.5796],[100.3866,13.5775],[100.3866,13.5774],[100.3866,13.5773],[100.3866,13.5771],[100.3866,13.577],[100.3866,13.5769],[100.3866,13.5768],[100.3865,13.5766],[100.3865,13.5764],[100.3863,13.5757],[100.3863,13.5756],[100.3862,13.5755],[100.3863,13.5754],[100.3863,13.5753],[100.3863,13.5752],[100.3863,13.5751],[100.3868,13.5746],[100.3868,13.5745],[100.3874,13.574],[100.3874,13.5739],[100.3874,13.5738],[100.3874,13.5737],[100.3874,13.5736],[100.3875,13.5735],[100.3875,13.5734],[100.3909,13.5685],[100.391,13.5683],[100.391,13.5682],[100.391,13.568],[100.391,13.5679],[100.391,13.5677],[100.391,13.5676],[100.391,13.5675],[100.391,13.5673],[100.391,13.5671],[100.3911,13.5669],[100.3911,13.5667],[100.3911,13.5665],[100.3912,13.5663],[100.3934,13.56],[100.3935,13.5595],[100.3936,13.5591],[100.3937,13.5586],[100.3937,13.5585],[100.3938,13.5581],[100.3938,13.558],[100.3938,13.5578],[100.3938,13.5576],[100.3939,13.5574],[100.3939,13.5573],[100.3939,13.5571],[100.394,13.5569],[100.394,13.5567],[100.415,13.5563],[100.415,13.5562],[100.4151,13.5561],[100.4151,13.556],[100.4151,13.5559],[100.415,13.5558],[100.415,13.5549],[100.415,13.5541],[100.415,13.5538],[100.415,13.5536],[100.415,13.5534],[100.415,13.5532],[100.4151,13.5531],[100.4151,13.553],[100.4151,13.5529],[100.4156,13.5517],[100.4157,13.5516],[100.419,13.5472],[100.4191,13.5471],[100.4193,13.5465],[100.4194,13.5463],[100.4195,13.546],[100.4195,13.5458],[100.4195,13.5456],[100.4196,13.5455],[100.4196,13.5453],[100.4196,13.5451],[100.4196,13.545],[100.4196,13.5449],[100.4196,13.5448],[100.4195,13.5446],[100.4195,13.5444],[100.4195,13.5443],[100.4194,13.5441],[100.4192,13.5434],[100.4191,13.5431],[100.416,13.5398],[100.4158,13.5397],[100.4098,13.5373],[100.4097,13.5372],[100.4097,13.5371],[100.4097,13.5369],[100.4097,13.5367],[100.4096,13.5365],[100.4096,13.5363],[100.4096,13.5362],[100.4071,13.5353],[100.4071,13.5351],[100.407,13.5351],[100.407,13.5348],[100.407,13.5345],[100.407,13.5341],[100.407,13.5339],[100.407,13.5338],[100.407,13.5337],[100.407,13.5336],[100.407,13.5335],[100.4071,13.5333],[100.4071,13.5331],[100.4071,13.5328],[100.4071,13.5325],[100.4072,13.532],[100.4072,13.5312],[100.4073,13.5304],[100.4073,13.5302],[100.4073,13.53],[100.4073,13.5299],[100.4073,13.5298],[100.4074,13.5296],[100.4074,13.5294],[100.4074,13.5292],[100.4075,13.529],[100.4075,13.5289],[100.4075,13.5288],[100.4075,13.5286],[100.4075,13.5284],[100.4075,13.5282],[100.4075,13.528],[100.4075,13.5279],[100.4075,13.5278],[100.4075,13.5275],[100.4075,13.5272],[100.4075,13.527],[100.4075,13.5269],[100.4075,13.5268],[100.4076,13.5266],[100.4076,13.5263],[100.4076,13.5261],[100.4076,13.526],[100.4076,13.5258],[100.4076,13.5255],[100.4076,13.5252],[100.4075,13.525],[100.4075,13.5245],[100.4075,13.524],[100.4074,13.5235],[100.4074,13.5234],[100.4074,13.5232],[100.4074,13.5231],[100.4074,13.5229],[100.4073,13.5227],[100.4073,13.5225],[100.4067,13.5207],[100.4066,13.5205],[100.4066,13.5202],[100.4065,13.52],[100.4065,13.5198],[100.4065,13.5197],[100.4065,13.5195],[100.4065,13.5193],[100.4064,13.519],[100.4064,13.5188],[100.4064,13.5187],[100.4064,13.5183],[100.4064,13.5179],[100.4064,13.5175],[100.4064,13.517],[100.4064,13.5166],[100.4064,13.5162],[100.4065,13.5158],[100.4065,13.5157],[100.4065,13.5156],[100.4065,13.5135],[100.4065,13.5114],[100.4065,13.5095],[100.4065,13.5094],[100.4065,13.5089],[100.4065,13.5084],[100.4065,13.5079],[100.4065,13.5074],[100.4065,13.5069],[100.4066,13.5064],[100.4066,13.5062],[100.4066,13.506],[100.4066,13.5057],[100.4067,13.5055],[100.4067,13.5053],[100.4068,13.505],[100.4069,13.5045],[100.407,13.5043],[100.4086,13.5009],[100.4107,13.4915]]]},"properties":{"pro_code":"10","pro_th":"กรุงเทพมหานคร","pro_en":"Bangkok","reg_nesdb":"Central","reg_royin":"Central"}},
{"type":"Feature","geometry":{"type":"Polygon","coordinates":[[[104.4061,15.289],[104.2453,15.374],[104.1214,15.5633],[103.9878,15.4069],[104.0591,15.4061],[104.0922,15.3581],[103.9725,15.2802],[103.9668,15.1644],[104.0213,15.0485],[103.9033,14.8476],[103.9857,14.8003],[104.0481,14.6751],[104.0569,14.344],[104.2768,14.4084],[104.4646,14.3449],[104.5009,14.3754],[104.5786,14.3574],[104.6464,14.4237],[104.6793,14.3904],[104.7088,14.4332],[104.7243,14.4025],[104.8053,14.4376],[104.907,14.3995],[104.8288,14.4407],[104.8625,14.4975],[104.8264,14.6066],[104.8507,14.6596],[104.8895,14.6511],[104.7985,14.8026],[104.8055,14.8969],[104.6845,14.951],[104.6707,15.0987],[104.7371,15.1623],[104.7004,15.1571],[104.7148,15.1954],[104.6061,15.2739],[104.5229,15.2529],[104.4061,15.289]]]},"properties":{"pro_code":"33","pro_th":"ศรีสะเกษ","pro_en":"Sisaket","reg_nesdb":"Northeast","reg_royin":"Northeast"}},
{"type":"Feature","geometry":{"type":"Polygon","coordinates":[[[100.4579,13.487],[100.5904,13.543],[100.8479,13.4781],[100.9627,13.6449],[100.8557,13.7004],[100.8311,13.7057],[100.7606,13.7164],[100.7479,13.7163],[100.7097,13.7179],[100.7097,13.7169],[100.7099,13.715],[100.7101,13.7136],[100.7103,13.7123],[100.7106,13.7109],[100.7109,13.7094],[100.7112,13.7077],[100.7114,13.7057],[100.7117,13.7044],[100.7119,13.7028],[100.712,13.7019],[100.7121,13.7007],[100.712,13.6995],[100.7118,13.6982],[100.7117,13.6971],[100.7116,13.6963],[100.7115,13.6957],[100.7114,13.6954],[100.7113,13.695],[100.7113,13.6949],[100.7101,13.6952],[100.7099,13.6944],[100.7097,13.6933],[100.7096,13.6924],[100.7095,13.6916],[100.7094,13.6908],[100.7078,13.6869],[100.7076,13.6859],[100.7054,13.6802],[100.7053,13.6798],[100.7052,13.6792],[100.7049,13.6785],[100.7047,13.6778],[100.7046,13.6771],[100.7046,13.6763],[100.7043,13.6748],[100.7041,13.6738],[100.7038,13.6728],[100.699,13.6629],[100.6987,13.6613],[100.6985,13.6602],[100.6983,13.6587],[100.6981,13.6574],[100.6979,13.6561],[100.6976,13.6547],[100.6929,13.6514],[100.6928,13.652],[100.6928,13.6525],[100.6928,13.653],[100.6928,13.6534],[100.6929,13.6539],[100.693,13.6546],[100.6931,13.6551],[100.6932,13.6559],[100.6933,13.6565],[100.6933,13.6571],[100.6666,13.6672],[100.6668,13.6683],[100.6526,13.6668],[100.6524,13.6655],[100.6479,13.6519],[100.6448,13.6526],[100.6434,13.6529],[100.6308,13.6559],[100.6163,13.6596],[100.5793,13.6683],[100.5794,13.6685],[100.5794,13.6686],[100.5887,13.6824],[100.5889,13.6832],[100.589,13.6836],[100.5893,13.6844],[100.5893,13.6848],[100.5894,13.6856],[100.5894,13.6862],[100.5893,13.6869],[100.5888,13.6883],[100.5886,13.6892],[100.588,13.6907],[100.5879,13.6909],[100.5837,13.6965],[100.5827,13.6972],[100.555,13.7059],[100.5543,13.7055],[100.5512,13.7018],[100.551,13.7007],[100.5507,13.6996],[100.5508,13.6982],[100.5508,13.6972],[100.551,13.6959],[100.5522,13.6916],[100.5524,13.6908],[100.5524,13.6898],[100.5525,13.689],[100.5526,13.6887],[100.5526,13.6879],[100.5526,13.687],[100.5526,13.686],[100.5523,13.6849],[100.552,13.6837],[100.5519,13.683],[100.5518,13.6823],[100.5517,13.6813],[100.5516,13.6806],[100.5513,13.6795],[100.5511,13.6787],[100.5283,13.6734],[100.5278,13.6738],[100.522,13.6791],[100.5216,13.6795],[100.5213,13.6797],[100.5212,13.6793],[100.5169,13.6724],[100.5167,13.6711],[100.5167,13.6704],[100.5167,13.6695],[100.5169,13.6685],[100.5229,13.6617],[100.523,13.6611],[100.5232,13.6603],[100.5232,13.6592],[100.5233,13.6583],[100.5233,13.6572],[100.5232,13.6562],[100.523,13.6549],[100.5228,13.6538],[100.5227,13.6529],[100.5226,13.6517],[100.5225,13.651],[100.5224,13.6502],[100.5223,13.6489],[100.5223,13.6479],[100.5222,13.6469],[100.522,13.646],[100.5219,13.6449],[100.5218,13.6437],[100.5216,13.643],[100.5216,13.6428],[100.5162,13.6391],[100.5165,13.636],[100.5174,13.634],[100.5172,13.6337],[100.5145,13.6281],[100.5146,13.6277],[100.5148,13.6273],[100.5149,13.6266],[100.5148,13.6261],[100.5148,13.6253],[100.515,13.6235],[100.5151,13.6223],[100.5154,13.6211],[100.5162,13.6197],[100.5162,13.6188],[100.5162,13.6183],[100.516,13.6177],[100.5164,13.617],[100.5166,13.6162],[100.5166,13.6154],[100.5168,13.6145],[100.5168,13.6139],[100.5171,13.6132],[100.5206,13.609],[100.5206,13.6089],[100.5207,13.6089],[100.5209,13.6054],[100.5139,13.6029],[100.5119,13.5985],[100.5118,13.5982],[100.5118,13.5979],[100.5117,13.5976],[100.5117,13.5975],[100.4993,13.5953],[100.499,13.5944],[100.499,13.594],[100.4989,13.5934],[100.4989,13.5929],[100.4988,13.5923],[100.4818,13.5935],[100.4816,13.5945],[100.4814,13.5958],[100.4811,13.5972],[100.4773,13.5992],[100.4773,13.5995],[100.4773,13.6003],[100.4776,13.6016],[100.4775,13.602],[100.4774,13.6023],[100.477,13.6025],[100.4755,13.6019],[100.4755,13.6015],[100.4734,13.5979],[100.4733,13.5969],[100.4736,13.5957],[100.4735,13.5953],[100.4671,13.5973],[100.4671,13.5981],[100.4672,13.5986],[100.4665,13.6004],[100.4664,13.6015],[100.4665,13.6027],[100.4667,13.6034],[100.4668,13.6038],[100.4524,13.6016],[100.4522,13.6004],[100.4521,13.5997],[100.452,13.5991],[100.4465,13.5863],[100.4465,13.585],[100.4466,13.5838],[100.4446,13.5562],[100.4446,13.5557],[100.4445,13.5547],[100.4445,13.5538],[100.4445,13.553],[100.4447,13.5522],[100.4463,13.5408],[100.4463,13.5407],[100.4541,13.5024],[100.4578,13.4871],[100.4579,13.487]]]},"properties":{"pro_code":"11","pro_th":"สมุทรปราการ","pro_en":"Samut Prakan","reg_nesdb":"Central","reg_royin":"Central"}},
{"type":"Feature","geometry":{"type":"Polygon","coordinates":[[[99.8561,13.3276],[99.7067,13.322],[99.6374,13.2022],[99.4417,13.184],[99.3499,13.2433],[99.2714,13.149],[99.21,13.2076],[99.1235,13.1947],[99.1042,13.0632],[99.1948,12.9911],[99.1629,12.9278],[99.2275,12.7441],[99.4388,12.5832],[99.5873,12.5679],[99.6224,12.6452],[99.7169,12.6003],[99.9556,12.6329],[100.0375,12.9542],[100.1023,13.0552],[99.9531,13.2975],[99.86,13.2442],[99.8561,13.3276]]]},"properties":{"pro_code":"76","pro_th":"เพชรบุรี","pro_en":"Phetchaburi","reg_nesdb":"West","reg_royin":"West"}},
{"type":"Feature","geometry":{"type":"Polygon","coordinates":[[[99.4388,12.5832],[99.4018,12.4598],[99.4841,12.2734],[99.4732,12.132],[99.5706,12.1454],[99.5363,12.0178],[99.5923,11.993],[99.5883,11.8728],[99.6649,11.8231],[99.5657,11.6264],[99.4668,11.6137],[99.4584,11.4913],[99.3944,11.4613],[99.4014,11.3888],[99.312,11.3176],[99.3074,11.2177],[99.1507,11.0335],[99.2803,10.9578],[99.4967,10.9894],[99.4954,11.1625],[99.5812,11.2117],[99.5579,11.3324],[99.726,11.6821],[99.8104,11.7378],[99.8603,11.993],[100.0197,12.191],[99.9746,12.2636],[100.0014,12.3768],[99.9556,12.6329],[99.7169,12.6003],[99.6224,12.6452],[99.5873,12.5679],[99.4388,12.5832]]]},"properties":{"pro_code":"77","pro_th":"ประจวบคีรีขันธ์","pro_en":"Prachuap Khiri Khan","reg_nesdb":"West","reg_royin":"West"}},
{"type":"Feature","geometry":{"type":"Polygon","coordinates":[[[102.6694,16.9937],[102.7082,17.0867],[102.8254,16.9713],[102.8243,16.8621],[102.8726,16.8811],[102.9179,16.835],[103.0984,16.913],[103.1175,16.9615],[103.2534,16.9616],[103.3948,16.8947],[103.4212,16.8016],[103.5478,17.0888],[103.62,17.0924],[103.6612,17.0207],[103.6671,17.1058],[103.5994,17.1691],[103.2812,17.2672],[103.2527,17.3143],[103.3018,17.3944],[103.2881,17.5],[103.3367,17.5763],[103.4095,17.599],[103.4107,17.7288],[103.3682,17.7935],[103.4227,17.8413],[103.3998,17.9046],[103.3294,17.8242],[103.2411,17.8863],[103.1499,17.8031],[103.078,17.8852],[102.9692,17.8233],[102.8844,17.8981],[102.8258,17.8134],[102.8297,17.6933],[102.7314,17.6034],[102.6482,17.5927],[102.5956,17.6223],[102.6149,17.686],[102.5327,17.7599],[102.4402,17.768],[102.4412,17.8197],[102.2844,17.9915],[102.2053,18.0225],[102.1525,17.9904],[102.0957,18.0855],[102.0552,18.0861],[102.0171,17.7478],[102.0311,17.6596],[102.0828,17.635],[102.3182,17.6788],[102.4395,17.2805],[102.5929,17.2655],[102.5036,17.1951],[102.5202,17.1003],[102.6694,16.9937]]]},"properties":{"pro_code":"41","pro_th":"อุดรธานี","pro_en":"Udon Thani","reg_nesdb":"Northeast","reg_royin":"Northeast"}},
{"type":"Feature","geometry":{"type":"Polygon","coordinates":[[[101.7879,16.7643],[102.0694,16.8891],[102.0299,16.9505],[102.1535,17.0274],[102.0164,17.1399],[102.0377,17.2208],[102.0999,17.1805],[101.9861,17.3233],[102.0206,17.3412],[101.9846,17.4427],[102.1286,17.4922],[102.0828,17.635],[102.0311,17.6596],[102.0171,17.7478],[102.0552,18.0861],[102.1056,18.2132],[102.0462,18.1993],[101.9003,18.0284],[101.7785,18.0656],[101.7323,17.922],[101.5743,17.8696],[101.5741,17.7851],[101.4904,17.724],[101.4837,17.7598],[101.3979,17.7307],[101.4307,17.7157],[101.3062,17.651],[101.164,17.4692],[100.9668,17.5709],[100.8808,17.5846],[100.8349,17.4684],[100.9161,17.4517],[100.9141,17.3425],[101.0065,17.3341],[101.1094,17.2344],[101.0285,16.9445],[101.0668,16.9021],[101.1068,16.9073],[101.1162,17.0195],[101.3976,17.178],[101.5043,17.0102],[101.5752,16.9836],[101.6501,17.0415],[101.7215,16.8068],[101.687,16.7986],[101.7277,16.7533],[101.7879,16.7643]]]},"properties":{"pro_code":"42","pro_th":"เลย","pro_en":"Loei","reg_nesdb":"Northeast","reg_royin":"Northeast"}},
{"type":"Feature","geometry":{"type":"Polygon","coordinates":[[[100.9739,13.4733],[100.9826,13.3658],[100.9026,13.3173],[100.9363,13.2034],[100.8713,13.0779],[100.9258,13.0248],[100.8564,12.9102],[100.9129,12.8151],[100.8337,12.7131],[100.8501,12.6492],[100.9302,12.6453],[100.9259,12.6051],[100.9635,12.5945],[100.9931,12.6561],[101.1037,12.9725],[101.087,13.0306],[101.1552,13.0018],[101.2098,13.0755],[101.3243,13.0857],[101.3947,13.0239],[101.4719,13.0305],[101.5912,13.1361],[101.6953,13.1459],[101.7184,13.1813],[101.6678,13.2728],[101.5642,13.3313],[101.5322,13.4251],[101.361,13.4635],[101.2675,13.5681],[101.0464,13.5596],[101.0704,13.5179],[101.0389,13.4789],[100.9739,13.4733]]]},"properties":{"pro_code":"20","pro_th":"ชลบุรี","pro_en":"Chonburi","reg_nesdb":"East","reg_royin":"East"}},
{"type":"Feature","geometry":{"type":"Polygon","coordinates":[[[101.7508,16.668],[101.7744,16.6287],[101.8292,16.6577],[101.9556,16.6309],[102.0678,16.4938],[102.2059,16.5033],[102.3732,16.4364],[102.4028,16.466],[102.4594,16.3942],[102.4144,16.2513],[102.2803,16.0759],[102.3848,15.9973],[102.3279,15.8037],[102.4039,15.7006],[102.6791,15.7283],[102.7769,15.6341],[102.8602,15.6409],[102.8833,15.7761],[102.9305,15.7962],[102.8954,16.0533],[102.8483,16.0719],[102.8462,16.2728],[102.9724,16.4198],[102.9531,16.4518],[103.0869,16.5165],[103.152,16.6438],[103.1842,16.8215],[103.136,16.8703],[103.1139,16.8181],[103.0984,16.913],[102.9179,16.835],[102.8726,16.8811],[102.8243,16.8621],[102.8254,16.9713],[102.7082,17.0867],[102.6694,16.9937],[102.6108,16.7713],[102.3465,16.8172],[102.2961,16.8909],[102.1877,16.858],[102.0694,16.8891],[101.7879,16.7643],[101.7508,16.668]]]},"properties":{"pro_code":"40","pro_th":"ขอนแก่น","pro_en":"Khon Kaen","reg_nesdb":"Northeast","reg_royin":"Northeast"}},
{"type":"Feature","geometry":{"type":"Polygon","coordinates":[[[98.5058,9.3094],[98.5465,9.3613],[98.6586,9.347],[98.6653,9.4604],[98.7675,9.5451],[98.7388,9.6007],[98.654,9.6528],[98.6267,9.7644],[98.7542,9.9319],[98.8142,9.9367],[98.9043,10.0261],[98.893,10.0646],[98.8355,10.0662],[98.9431,10.3518],[98.8843,10.4578],[98.9619,10.5394],[98.9648,10.6042],[98.894,10.682],[98.8891,10.7742],[98.7797,10.6795],[98.8095,10.4727],[98.6392,10.1314],[98.596,9.9341],[98.5153,9.8534],[98.5354,9.8009],[98.5658,9.8178],[98.5003,9.7407],[98.5572,9.7292],[98.5353,9.6778],[98.4846,9.6861],[98.5181,9.6206],[98.4646,9.603],[98.5468,9.573],[98.4903,9.5651],[98.4749,9.4559],[98.4554,9.5632],[98.3898,9.3328],[98.5058,9.3094]]]},"properties":{"pro_code":"85","pro_th":"ระนอง","pro_en":"Ranong","reg_nesdb":"South","reg_royin":"South"}},
{"type":"Feature","geometry":{"type":"Polygon","coordinates":[[[99.1507,11.0335],[99.0811,10.9554],[99.0203,10.9669],[99.0107,10.8567],[98.8891,10.7742],[98.894,10.682],[98.9648,10.6042],[98.9619,10.5394],[98.8843,10.4578],[98.9431,10.3518],[98.8355,10.0662],[98.893,10.0646],[98.9043,10.0261],[98.8142,9.9367],[98.7542,9.9319],[98.6267,9.7644],[98.654,9.6528],[98.7388,9.6007],[98.7683,9.6866],[98.8645,9.7273],[98.9823,9.6711],[99.1592,9.7042],[99.1383,9.8091],[99.1818,10.0433],[99.1482,10.1257],[99.2468,10.2357],[99.1623,10.2788],[99.1467,10.3488],[99.285,10.3663],[99.2283,10.469],[99.2674,10.5158],[99.2414,10.54],[99.3178,10.6687],[99.3682,10.6776],[99.4409,10.8718],[99.5095,10.8729],[99.4967,10.9894],[99.2803,10.9578],[99.1507,11.0335]]]},"properties":{"pro_code":"86","pro_th":"ชุมพร","pro_en":"Chumphon","reg_nesdb":"South","reg_royin":"South"}},
{"type":"Feature","geometry":{"type":"Polygon","coordinates":[[[98.3661,8.1346],[98.2858,8.2001],[98.3018,8.1086],[98.2724,8.0384],[98.2929,8.0039],[98.2582,7.9356],[98.2968,7.9055],[98.2609,7.8867],[98.3025,7.7593],[98.3545,7.8345],[98.4122,7.8018],[98.3944,7.8701],[98.4447,7.8836],[98.3919,7.9497],[98.4405,8.0935],[98.3973,8.0823],[98.3936,8.1191],[98.3661,8.1346]]]},"properties":{"pro_code":"83","pro_th":"ภูเก็ต","pro_en":"Phuket","reg_nesdb":"South","reg_royin":"South"}},
{"type":"Feature","geometry":{"type":"MultiPolygon","coordinates":[[[[98.5058,9.3094],[98.5309,9.2561],[98.473,9.0649],[98.5106,8.9981],[98.451,8.9665],[98.4454,8.8955],[98.5985,8.7974],[98.5944,8.7123],[98.5365,8.661],[98.7037,8.6317],[98.7456,8.6727],[98.7955,8.6406],[98.8907,8.6676],[98.9471,8.4254],[99.0343,8.3653],[99.1754,8.3733],[99.2922,8.3126],[99.2403,8.3661],[99.2595,8.4489],[99.3933,8.514],[99.4555,8.6036],[99.5225,8.7193],[99.5169,8.8353],[99.5757,8.9103],[99.6964,8.9351],[99.723,8.9775],[99.7717,9.0972],[99.7241,9.1127],[99.7222,9.1566],[99.7691,9.3231],[99.681,9.3382],[99.6075,9.2687],[99.5273,9.2834],[99.4664,9.1982],[99.3672,9.1898],[99.3171,9.2462],[99.2513,9.223],[99.2188,9.339],[99.3126,9.389],[99.1592,9.7042],[98.9823,9.6711],[98.8645,9.7273],[98.7683,9.6866],[98.7388,9.6007],[98.7675,9.5451],[98.6653,9.4604],[98.6586,9.347],[98.5465,9.3613],[98.5058,9.3094]]],[[[99.9676,9.4108],[100.0735,9.471],[100.08,9.5887],[100.0564,9.5591],[99.9117,9.57],[99.9288,9.418],[99.9676,9.4108]]],[[[99.6904,9.5519],[99.6617,9.5143],[99.7007,9.5135],[99.6904,9.5519]]],[[[100.0627,9.7866],[99.9914,9.804],[99.9606,9.7684],[99.9865,9.7097],[100.0772,9.6666],[100.0627,9.7866]]]]},"properties":{"pro_code":"84","pro_th":"สุราษฎร์ธานี","pro_en":"Surat Thani","reg_nesdb":"South","reg_royin":"South"}},
{"type":"Feature","geometry":{"type":"MultiPolygon","coordinates":[[[[98.7037,8.6317],[98.6094,8.266],[98.6956,8.1447],[98.6631,8.1306],[98.6675,8.0372],[98.7473,8.1147],[98.7648,8.0211],[98.856,8.0218],[98.894,7.937],[98.9592,8.0253],[98.9816,8.0158],[98.9413,7.9903],[98.9719,7.9333],[99.0318,7.8856],[99.0836,7.9099],[99.0169,7.8231],[99.0421,7.6999],[99.1023,7.6966],[99.0991,7.7716],[99.1777,7.6128],[99.2619,7.6625],[99.3121,7.7286],[99.2784,7.8486],[99.3761,7.9431],[99.4153,8.0006],[99.386,8.1413],[99.297,8.132],[99.3358,8.2694],[99.2922,8.3126],[99.1754,8.3733],[99.0343,8.3653],[98.9471,8.4254],[98.8907,8.6676],[98.7955,8.6406],[98.7456,8.6727],[98.7037,8.6317]]],[[[99.0754,7.5708],[99.0197,7.6488],[99.0985,7.4673],[99.0754,7.5708]]],[[[99.0693,7.6875],[99.0379,7.655],[99.1197,7.5882],[99.1216,7.6704],[99.0693,7.6875]]],[[[98.7725,7.7624],[98.7566,7.7876],[98.7689,7.7177],[98.7725,7.7624]]],[[[98.9669,7.853],[98.9349,7.8389],[98.9867,7.7834],[98.9669,7.853]]],[[[99.0324,7.8674],[99.0057,7.8825],[99.0179,7.8369],[99.0324,7.8674]]]]},"properties":{"pro_code":"81","pro_th":"กระบี่","pro_en":"Krabi","reg_nesdb":"South","reg_royin":"South"}},
{"type":"Feature","geometry":{"type":"Polygon","coordinates":[[[104.9799,16.2783],[104.7378,16.5406],[104.7372,16.8047],[104.7011,16.8271],[104.6676,16.787],[104.5923,16.8653],[104.4656,16.8653],[104.4527,16.8277],[104.4394,16.8713],[104.3989,16.8382],[104.3571,16.8807],[104.2959,16.838],[104.2432,16.8935],[104.1258,16.8874],[104.0708,16.8221],[104.1991,16.6602],[104.1749,16.6094],[104.2389,16.5233],[104.238,16.4284],[104.294,16.4725],[104.3515,16.3254],[104.4989,16.3409],[104.6257,16.2117],[104.6664,16.2436],[104.7652,16.1963],[104.8542,16.2014],[104.9799,16.2783]]]},"properties":{"pro_code":"49","pro_th":"มุกดาหาร","pro_en":"Mukdahan","reg_nesdb":"Northeast","reg_royin":"Northeast"}},
{"type":"Feature","geometry":{"type":"MultiPolygon","coordinates":[[[[98.3898,9.3328],[98.2973,9.3569],[98.2494,9.1246],[98.2603,8.7625],[98.2213,8.7383],[98.2465,8.6391],[98.2038,8.5548],[98.2816,8.2017],[98.2929,8.2044],[98.3541,8.1737],[98.3661,8.1346],[98.3936,8.1191],[98.4558,8.1136],[98.5243,8.1799],[98.5182,8.2668],[98.6094,8.266],[98.7037,8.6317],[98.5365,8.661],[98.5944,8.7123],[98.5985,8.7974],[98.4454,8.8955],[98.451,8.9665],[98.5106,8.9981],[98.473,9.0649],[98.5309,9.2561],[98.5058,9.3094],[98.3898,9.3328]]],[[[98.6009,8.0275],[98.6016,8.0838],[98.5277,8.1168],[98.5864,8.0173],[98.5962,7.8884],[98.6009,8.0275]]],[[[98.6365,8.1849],[98.5624,8.1196],[98.6101,8.0816],[98.6365,8.1849]]],[[[97.8875,9.4625],[97.8395,9.4155],[97.8719,9.3788],[97.8875,9.4625]]]]},"properties":{"pro_code":"82","pro_th":"พังงา","pro_en":"Phang Nga","reg_nesdb":"South","reg_royin":"South"}},
{"type":"Feature","geometry":{"type":"Polygon","coordinates":[[[102.1067,14.1514],[102.0752,14.0351],[101.9249,13.9935],[101.9519,13.9352],[101.9116,13.9339],[101.9046,13.8829],[101.9486,13.6677],[101.9148,13.5854],[101.8811,13.4904],[101.9372,13.4781],[101.9891,13.334],[102.0283,13.2366],[102.1085,13.2639],[102.1276,13.3344],[102.1895,13.292],[102.3534,13.2987],[102.3399,13.5597],[102.5267,13.5641],[102.6247,13.61],[102.5485,13.6601],[102.7323,13.7734],[102.7828,13.9327],[102.9115,14.018],[102.9298,14.1764],[102.6957,14.1306],[102.608,14.1711],[102.5502,14.1352],[102.4313,14.1523],[102.3592,14.1657],[102.3073,14.1201],[102.216,14.1446],[102.192,14.195],[102.1637,14.1406],[102.1067,14.1514]]]},"properties":{"pro_code":"27","pro_th":"สระแก้ว","pro_en":"Sa Kaeo","reg_nesdb":"East","reg_royin":"East"}},
{"type":"Feature","geometry":{"type":"Polygon","coordinates":[[[103.4058,17.9924],[103.3998,17.9046],[103.4227,17.8413],[103.3682,17.7935],[103.4107,17.7288],[103.4095,17.599],[103.3367,17.5763],[103.2881,17.5],[103.3018,17.3944],[103.2527,17.3143],[103.2812,17.2672],[103.5994,17.1691],[103.6671,17.1058],[103.6612,17.0207],[103.7222,17.0159],[103.783,16.9585],[103.7877,16.8857],[103.938,16.7728],[104.0235,16.8575],[104.0708,16.8221],[104.1258,16.8874],[104.2432,16.8935],[104.3974,17.0221],[104.3536,17.0696],[104.4352,17.2406],[104.4169,17.4175],[104.1725,17.4295],[104.1312,17.3803],[104.057,17.3903],[104.0085,17.4862],[104.0537,17.5927],[104.0283,17.6386],[104.0824,17.6823],[104.0119,17.811],[103.942,17.7854],[103.9063,17.8805],[103.796,17.8771],[103.7947,17.8422],[103.7635,17.9554],[103.7474,17.9121],[103.6246,17.9691],[103.6396,18.0142],[103.5425,18.0883],[103.4964,18.0648],[103.4979,17.9901],[103.4058,17.9924]]]},"properties":{"pro_code":"47","pro_th":"สกลนคร","pro_en":"Sakon Nakhon","reg_nesdb":"Northeast","reg_royin":"Northeast"}},
{"type":"Feature","geometry":{"type":"Polygon","coordinates":[[[99.2922,8.3126],[99.3358,8.2694],[99.297,8.132],[99.386,8.1413],[99.4153,8.0006],[99.3761,7.9431],[99.4233,7.9262],[99.4202,7.8664],[99.4712,7.9048],[99.5316,7.8807],[99.6309,8.0094],[99.7416,8.0067],[99.7376,7.8613],[99.9526,7.8974],[100.0472,7.837],[100.1776,7.8764],[100.3369,7.9319],[100.198,8.4736],[100.128,8.5172],[100.1729,8.4573],[100.1764,8.3822],[100.1459,8.3768],[99.9658,8.5883],[99.8809,9.2093],[99.8356,9.306],[99.7691,9.3231],[99.7222,9.1566],[99.7241,9.1127],[99.7717,9.0972],[99.723,8.9775],[99.6964,8.9351],[99.5757,8.9103],[99.5169,8.8353],[99.5225,8.7193],[99.4555,8.6036],[99.3933,8.514],[99.2595,8.4489],[99.2403,8.3661],[99.2922,8.3126]]]},"properties":{"pro_code":"80","pro_th":"นครศรีธรรมราช","pro_en":"Nakhon Si Thammarat","reg_nesdb":"South","reg_royin":"South"}},
{"type":"Feature","geometry":{"type":"Polygon","coordinates":[[[104.0119,17.811],[104.0824,17.6823],[104.0283,17.6386],[104.0537,17.5927],[104.0085,17.4862],[104.057,17.3903],[104.1312,17.3803],[104.1725,17.4295],[104.4169,17.4175],[104.4352,17.2406],[104.3536,17.0696],[104.3974,17.0221],[104.2432,16.8935],[104.2959,16.838],[104.3571,16.8807],[104.3989,16.8382],[104.4394,16.8713],[104.4527,16.8277],[104.4656,16.8653],[104.5923,16.8653],[104.6676,16.787],[104.7011,16.8271],[104.7372,16.8047],[104.7343,17.0293],[104.801,17.1629],[104.7947,17.4035],[104.7126,17.5161],[104.4669,17.6562],[104.3545,17.8234],[104.2794,17.8581],[104.1903,18.0234],[104.1137,18.0051],[104.1341,17.9558],[104.0713,17.878],[104.003,17.8969],[104.0119,17.811]]]},"properties":{"pro_code":"48","pro_th":"นครพนม","pro_en":"Nakhon Phanom","reg_nesdb":"Northeast","reg_royin":"Northeast"}},
{"type":"Feature","geometry":{"type":"Polygon","coordinates":[[[101.4322,14.3895],[101.497,14.3344],[101.4988,14.2682],[101.3819,14.2728],[101.3823,14.2105],[101.2888,14.1497],[101.3209,14.0775],[101.2145,14.0558],[101.1374,13.9698],[101.1496,13.8516],[101.2204,13.8869],[101.3496,13.8699],[101.5514,13.7947],[101.5916,13.7362],[101.757,13.775],[101.8354,13.7011],[101.8328,13.6367],[101.9148,13.5854],[101.9486,13.6677],[101.9046,13.8829],[101.9116,13.9339],[101.9519,13.9352],[101.9249,13.9935],[102.0752,14.0351],[102.1067,14.1514],[101.9666,14.2278],[101.9295,14.3279],[101.8402,14.3661],[101.7489,14.3479],[101.7421,14.3075],[101.6223,14.4269],[101.4829,14.4628],[101.4361,14.4458],[101.4322,14.3895]]]},"properties":{"pro_code":"25","pro_th":"ปราจีนบุรี","pro_en":"Prachin Buri","reg_nesdb":"East","reg_royin":"East"}},
{"type":"Feature","geometry":{"type":"Polygon","coordinates":[[[104.3515,16.3254],[104.294,16.4725],[104.238,16.4284],[104.1716,16.4456],[104.0457,16.3882],[104.028,16.4432],[103.8229,16.47],[103.6993,16.3744],[103.7543,16.3045],[103.7342,16.2234],[103.6384,16.1872],[103.6157,16.2181],[103.4924,16.2024],[103.4528,16.0767],[103.482,15.9297],[103.4006,15.7596],[103.4194,15.7213],[103.3,15.7064],[103.2717,15.6495],[103.3015,15.6486],[103.2738,15.6021],[103.3028,15.5623],[103.416,15.5354],[103.3947,15.4315],[103.8886,15.4695],[103.9878,15.4069],[104.1214,15.5633],[104.2098,15.6187],[104.1466,15.714],[104.1213,15.6984],[104.1344,15.7984],[104.0716,15.8383],[103.9998,15.7965],[104.0365,15.8692],[104.0113,15.9582],[104.1065,15.9906],[104.1151,16.1147],[104.2303,16.1688],[104.3515,16.3254]]]},"properties":{"pro_code":"45","pro_th":"ร้อยเอ็ด","pro_en":"Roi Et","reg_nesdb":"Northeast","reg_royin":"Northeast"}},
{"type":"Feature","geometry":{"type":"Polygon","coordinates":[[[101.2428,14.4715],[101.1769,14.3475],[101.0561,14.4144],[101.0493,14.3476],[100.9517,14.2721],[100.9143,14.2212],[100.9135,13.961],[101.1374,13.9698],[101.2145,14.0558],[101.3209,14.0775],[101.2888,14.1497],[101.3823,14.2105],[101.3819,14.2728],[101.4988,14.2682],[101.497,14.3344],[101.4322,14.3895],[101.2777,14.5122],[101.2428,14.4715]]]},"properties":{"pro_code":"26","pro_th":"นครนายก","pro_en":"Nakhon Nayok","reg_nesdb":"East","reg_royin":"Central"}},
{"type":"Feature","geometry":{"type":"Polygon","coordinates":[[[103.0984,16.913],[103.1139,16.8181],[103.136,16.8703],[103.1842,16.8215],[103.152,16.6438],[103.1953,16.6307],[103.1763,16.3626],[103.2917,16.3927],[103.4104,16.285],[103.4519,16.1825],[103.4924,16.2024],[103.6157,16.2181],[103.6384,16.1872],[103.7342,16.2234],[103.7543,16.3045],[103.6993,16.3744],[103.8229,16.47],[104.028,16.4432],[104.0457,16.3882],[104.1716,16.4456],[104.238,16.4284],[104.2389,16.5233],[104.1749,16.6094],[104.1991,16.6602],[104.0708,16.8221],[104.0235,16.8575],[103.938,16.7728],[103.7877,16.8857],[103.783,16.9585],[103.7222,17.0159],[103.6612,17.0207],[103.62,17.0924],[103.5478,17.0888],[103.4212,16.8016],[103.3948,16.8947],[103.2534,16.9616],[103.1175,16.9615],[103.0984,16.913]]]},"properties":{"pro_code":"46","pro_th":"กาฬสินธุ์","pro_en":"Kalasin","reg_nesdb":"Northeast","reg_royin":"Northeast"}},
{"type":"Feature","geometry":{"type":"MultiPolygon","coordinates":[[[[102.287,12.2996],[102.2587,12.2877],[102.295,12.1871],[102.4734,12.1658],[102.584,12.0432],[102.5542,12.2057],[102.6417,12.1795],[102.6252,12.1492],[102.766,12.0229],[102.7744,11.9112],[102.8928,11.7541],[102.9124,11.6505],[102.9072,11.7577],[102.7038,12.1733],[102.7255,12.3646],[102.787,12.415],[102.6466,12.6089],[102.5092,12.6716],[102.5086,12.753],[102.3838,12.6774],[102.4236,12.5714],[102.3584,12.5963],[102.305,12.5545],[102.3256,12.4263],[102.372,12.3901],[102.287,12.2996]]],[[[102.5611,11.7479],[102.5256,11.6067],[102.5923,11.5617],[102.6082,11.6894],[102.5647,11.7008],[102.5611,11.7479]]],[[[102.4718,11.8404],[102.4438,11.8111],[102.4867,11.7899],[102.5117,11.8252],[102.4718,11.8404]]],[[[102.3933,12.0521],[102.352,12.1164],[102.2508,12.1574],[102.3163,11.9562],[102.3774,11.9634],[102.3818,12.0006],[102.4354,11.9524],[102.3933,12.0521]]]]},"properties":{"pro_code":"23","pro_th":"ตราด","pro_en":"Trat","reg_nesdb":"East","reg_royin":"East"}},
{"type":"Feature","geometry":{"type":"Polygon","coordinates":[[[103.2984,18.3041],[103.1747,18.2619],[103.0348,17.9763],[102.9615,18.0053],[102.8517,17.968],[102.6871,17.8689],[102.6717,17.8032],[102.592,17.8388],[102.6025,17.9559],[102.4268,17.9863],[102.1056,18.2132],[102.0552,18.0861],[102.0957,18.0855],[102.1525,17.9904],[102.2053,18.0225],[102.2844,17.9915],[102.4412,17.8197],[102.4402,17.768],[102.5327,17.7599],[102.6149,17.686],[102.5956,17.6223],[102.6482,17.5927],[102.7314,17.6034],[102.8297,17.6933],[102.8258,17.8134],[102.8844,17.8981],[102.9692,17.8233],[103.078,17.8852],[103.1499,17.8031],[103.2411,17.8863],[103.3294,17.8242],[103.3998,17.9046],[103.4058,17.9924],[103.2996,18.0813],[103.2956,18.1197],[103.367,18.1642],[103.2599,18.2487],[103.2984,18.3041]]]},"properties":{"pro_code":"43","pro_th":"หนองคาย","pro_en":"Nong Khai","reg_nesdb":"Northeast","reg_royin":"Northeast"}},
{"type":"Feature","geometry":{"type":"Polygon","coordinates":[[[100.9124,13.9454],[100.9125,13.936],[100.9121,13.9328],[100.9116,13.9294],[100.9113,13.926],[100.9107,13.9212],[100.9103,13.9175],[100.9098,13.9141],[100.9091,13.9095],[100.9087,13.9052],[100.9081,13.9014],[100.9076,13.897],[100.9074,13.8923],[100.9068,13.8878],[100.9066,13.8854],[100.9065,13.8838],[100.9061,13.8803],[100.9059,13.8758],[100.906,13.8708],[100.906,13.8668],[100.906,13.8628],[100.9058,13.8603],[100.9054,13.8594],[100.9052,13.8562],[100.905,13.8524],[100.9049,13.8505],[100.9049,13.8503],[100.9046,13.8485],[100.9128,13.8463],[100.9112,13.8449],[100.938,13.8146],[100.936,13.8118],[100.9323,13.8071],[100.9306,13.8048],[100.8557,13.7006],[100.8557,13.7004],[100.9627,13.6449],[100.8479,13.4781],[100.9739,13.4733],[101.0389,13.4789],[101.0704,13.5179],[101.0464,13.5596],[101.2675,13.5681],[101.361,13.4635],[101.5322,13.4251],[101.5642,13.3313],[101.6678,13.2728],[101.7184,13.1813],[101.8503,13.2479],[101.8908,13.2269],[101.9057,13.2875],[101.9891,13.334],[101.9372,13.4781],[101.8811,13.4904],[101.9148,13.5854],[101.8328,13.6367],[101.8354,13.7011],[101.757,13.775],[101.5916,13.7362],[101.5514,13.7947],[101.3496,13.8699],[101.2204,13.8869],[101.1496,13.8516],[101.1374,13.9698],[100.9135,13.961],[100.9124,13.9454]]]},"properties":{"pro_code":"24","pro_th":"ฉะเชิงเทรา","pro_en":"Chachoengsao","reg_nesdb":"East","reg_royin":"East"}},
{"type":"Feature","geometry":{"type":"Polygon","coordinates":[[[103.1111,15.4816],[103.3412,15.4054],[103.3947,15.4315],[103.416,15.5354],[103.3028,15.5623],[103.2738,15.6021],[103.3015,15.6486],[103.2717,15.6495],[103.3,15.7064],[103.4194,15.7213],[103.4006,15.7596],[103.482,15.9297],[103.4528,16.0767],[103.4924,16.2024],[103.4519,16.1825],[103.4104,16.285],[103.2917,16.3927],[103.1763,16.3626],[103.1953,16.6307],[103.152,16.6438],[103.0869,16.5165],[102.9531,16.4518],[102.9724,16.4198],[102.8462,16.2728],[102.8483,16.0719],[102.8954,16.0533],[102.9305,15.7962],[103.006,15.7254],[102.9766,15.6571],[103.1111,15.4816]]]},"properties":{"pro_code":"44","pro_th":"มหาสารคาม","pro_en":"Maha Sarakham","reg_nesdb":"Northeast","reg_royin":"Northeast"}},
{"type":"Feature","geometry":{"type":"Polygon","coordinates":[[[100.9931,12.6561],[101.2354,12.6647],[101.4192,12.5834],[101.4474,12.6293],[101.7846,12.6938],[101.8195,12.8948],[101.7394,12.9589],[101.759,13.0461],[101.7108,13.0398],[101.6953,13.1459],[101.5912,13.1361],[101.4719,13.0305],[101.3947,13.0239],[101.3243,13.0857],[101.2098,13.0755],[101.1552,13.0018],[101.087,13.0306],[101.1037,12.9725],[100.9931,12.6561]]]},"properties":{"pro_code":"21","pro_th":"ระยอง","pro_en":"Rayong","reg_nesdb":"East","reg_royin":"East"}},
{"type":"Feature","geometry":{"type":"Polygon","coordinates":[[[101.6953,13.1459],[101.7108,13.0398],[101.759,13.0461],[101.7394,12.9589],[101.8195,12.8948],[101.7846,12.6938],[101.9505,12.5162],[102.0122,12.5273],[102.287,12.2996],[102.372,12.3901],[102.3256,12.4263],[102.305,12.5545],[102.3584,12.5963],[102.4236,12.5714],[102.3838,12.6774],[102.5086,12.753],[102.5361,12.7839],[102.4861,12.9774],[102.5297,13.0029],[102.438,13.0862],[102.3534,13.2987],[102.1895,13.292],[102.1276,13.3344],[102.1085,13.2639],[102.0283,13.2366],[101.9891,13.334],[101.9057,13.2875],[101.8908,13.2269],[101.8503,13.2479],[101.7184,13.1813],[101.6953,13.1459]]]},"properties":{"pro_code":"22","pro_th":"จันทบุรี","pro_en":"Chanthaburi","reg_nesdb":"East","reg_royin":"East"}},
{"type":"Feature","geometry":{"type":"Polygon","coordinates":[[[99.7311,14.9637],[99.9681,14.9018],[100.0408,14.9193],[100.0397,14.961],[100.1327,14.9463],[100.1367,14.9131],[100.2017,14.9543],[100.291,14.9563],[100.2191,15.0426],[100.3516,15.1199],[100.2749,15.2244],[100.2521,15.3559],[100.102,15.4175],[100.0584,15.2638],[100.0027,15.3021],[99.7574,15.3121],[99.7316,15.2088],[99.7909,15.0865],[99.7311,14.9637]]]},"properties":{"pro_code":"18","pro_th":"ชัยนาท","pro_en":"Chainat","reg_nesdb":"Central","reg_royin":"Central"}},
{"type":"Feature","geometry":{"type":"Polygon","coordinates":[[[101.3991,15.0725],[101.2585,14.913],[101.0995,14.9085],[101.0733,14.7634],[101.0238,14.8091],[100.9919,14.7404],[100.7774,14.796],[100.6024,14.6538],[100.5753,14.5969],[100.6032,14.556],[100.6751,14.5571],[100.656,14.6061],[100.7807,14.5675],[100.7597,14.4135],[100.7971,14.3907],[100.7728,14.3297],[100.8235,14.3295],[100.8231,14.2439],[100.9517,14.2721],[101.0493,14.3476],[101.0561,14.4144],[101.1769,14.3475],[101.2428,14.4715],[101.1811,14.5436],[101.2154,14.5871],[101.1884,14.7493],[101.2976,14.7388],[101.4508,14.8577],[101.3991,15.0725]]]},"properties":{"pro_code":"19","pro_th":"สระบุรี","pro_en":"Saraburi","reg_nesdb":"Central","reg_royin":"Central"}},
{"type":"Feature","geometry":{"type":"Polygon","coordinates":[[[99.6933,19.3833],[99.5657,19.4178],[99.5401,19.0848],[99.4016,19.0001],[99.3274,18.6854],[99.3595,18.607],[99.3171,18.5321],[99.1127,18.267],[99.0185,18.2527],[99.1066,17.9136],[99.1826,17.8496],[99.1733,17.8098],[99.1045,17.813],[99.1255,17.7718],[99.05,17.6124],[98.8819,17.6261],[98.9109,17.5354],[98.932,17.4743],[99.1093,17.3588],[99.1726,17.3364],[99.2284,17.4056],[99.27,17.4004],[99.3162,17.2694],[99.3931,17.2064],[99.4557,17.2545],[99.4764,17.3411],[99.4061,17.4713],[99.4713,17.7379],[99.3862,17.6856],[99.3934,17.8154],[99.5857,18.0354],[99.7194,18.0698],[99.8584,18.2842],[99.9067,18.2801],[99.9998,18.4019],[100.0562,18.558],[100.109,18.563],[100.1142,18.8091],[99.7735,19.0643],[99.6933,19.3833]]]},"properties":{"pro_code":"52","pro_th":"ลำปาง","pro_en":"Lampang","reg_nesdb":"UpperNorth","reg_royin":"North"}},
{"type":"Feature","geometry":{"type":"Polygon","coordinates":[[[99.8947,17.8056],[99.9768,17.6579],[99.9241,17.5871],[99.9326,17.5069],[100.0309,17.444],[99.9549,17.2428],[99.9732,17.1646],[99.9961,17.1375],[100.0365,17.1814],[100.1617,17.1674],[100.2533,17.2483],[100.2434,17.352],[100.4267,17.4214],[100.5896,17.4196],[100.8713,17.7068],[100.9555,17.7007],[100.9883,17.743],[101.0189,17.8914],[101.1173,17.9514],[101.1838,18.0652],[101.1926,18.2132],[101.1441,18.259],[101.1821,18.3405],[101.0858,18.3807],[100.9256,18.2502],[100.9138,18.1593],[100.777,18.0325],[100.7171,18.0677],[100.7058,18.0265],[100.4813,18.0553],[100.4136,18.022],[100.3502,17.9828],[100.3343,17.8888],[100.2465,17.962],[100.1298,17.8563],[99.9779,17.8339],[99.9583,17.7797],[99.8947,17.8056]]]},"properties":{"pro_code":"53","pro_th":"อุตรดิตถ์","pro_en":"Uttaradit","reg_nesdb":"UpperNorth","reg_royin":"North"}},
{"type":"Feature","geometry":{"type":"Polygon","coordinates":[[[99.5128,20.1471],[99.3252,20.0703],[99.2123,20.1307],[99.073,20.0974],[98.981,19.7341],[98.8389,19.813],[98.5681,19.6729],[98.5183,19.7158],[98.4669,19.6926],[98.5874,19.5149],[98.6022,19.2779],[98.5689,19.2067],[98.6517,19.0943],[98.5414,19.0255],[98.4214,19.0281],[98.3427,19.1531],[98.2525,19.1607],[98.1564,18.9196],[98.0925,18.8692],[98.1057,18.6487],[98.2371,18.572],[98.074,18.4294],[98.198,18.332],[98.1394,18.2398],[98.1926,18.0971],[98.2521,18.0648],[98.2209,18.0243],[98.2462,17.9887],[98.1437,17.9357],[98.0475,17.9442],[98.073,17.83],[98.1481,17.7765],[98.1447,17.6823],[98.0898,17.6366],[98.1367,17.5412],[98.2981,17.5764],[98.3295,17.4692],[98.2917,17.408],[98.3926,17.2423],[98.5743,17.2847],[98.4939,17.8137],[98.624,17.7773],[98.6708,17.834],[98.6852,17.7911],[98.7838,17.8326],[98.8221,17.7973],[98.8706,17.8498],[98.8341,17.9887],[98.7783,18.0026],[98.8137,18.0793],[98.7737,18.2512],[98.6733,18.3111],[98.7086,18.4423],[98.7644,18.4347],[98.9351,18.5431],[99.0105,18.6728],[99.1556,18.71],[99.2336,18.6518],[99.2188,18.5924],[99.3171,18.5321],[99.3595,18.607],[99.3274,18.6854],[99.4016,19.0001],[99.3038,19.1936],[99.3424,19.269],[99.295,19.4925],[99.3259,19.5394],[99.2584,19.6504],[99.4186,19.8133],[99.3834,19.8904],[99.4951,20.0804],[99.5703,20.1081],[99.5128,20.1471]]]},"properties":{"pro_code":"50","pro_th":"เชียงใหม่","pro_en":"Chiang Mai","reg_nesdb":"UpperNorth","reg_royin":"North"}},
{"type":"Feature","geometry":{"type":"Polygon","coordinates":[[[98.9109,17.5354],[98.8819,17.6261],[99.05,17.6124],[99.1255,17.7718],[99.1045,17.813],[99.1733,17.8098],[99.1826,17.8496],[99.1066,17.9136],[99.0185,18.2527],[99.1127,18.267],[99.3171,18.5321],[99.2188,18.5924],[99.2336,18.6518],[99.1556,18.71],[99.0105,18.6728],[98.9351,18.5431],[98.7644,18.4347],[98.7086,18.4423],[98.6733,18.3111],[98.7737,18.2512],[98.8137,18.0793],[98.7783,18.0026],[98.8341,17.9887],[98.8706,17.8498],[98.8221,17.7973],[98.7838,17.8326],[98.6852,17.7911],[98.7459,17.6927],[98.6839,17.6658],[98.6906,17.4241],[98.9109,17.5354]]]},"properties":{"pro_code":"51","pro_th":"ลำพูน","pro_en":"Lamphun","reg_nesdb":"UpperNorth","reg_royin":"North"}},
{"type":"Feature","geometry":{"type":"Polygon","coordinates":[[[101.5018,5.8894],[101.5813,5.9345],[101.6587,5.8749],[101.6935,5.754],[101.7531,5.7973],[101.8263,5.7353],[101.836,5.7889],[101.9433,5.8727],[101.9475,5.9908],[102.0926,6.1475],[102.0866,6.2473],[101.8175,6.4519],[101.7247,6.5768],[101.6689,6.5742],[101.6308,6.6356],[101.5743,6.6213],[101.5929,6.5651],[101.5874,6.5134],[101.5093,6.4534],[101.4633,6.4652],[101.3874,6.3358],[101.4034,6.2398],[101.3712,6.2086],[101.4744,6.0675],[101.5018,5.8894]]]},"properties":{"pro_code":"96","pro_th":"นราธิวาส","pro_en":"Narathiwat","reg_nesdb":"South","reg_royin":"South"}},
{"type":"Feature","geometry":{"type":"Polygon","coordinates":[[[101.7247,6.5768],[101.5259,6.8656],[101.2776,6.9529],[101.2393,6.9312],[101.2891,6.9488],[101.3328,6.876],[101.2479,6.9012],[101.0637,6.8575],[101.019,6.725],[101.1081,6.6291],[101.2139,6.595],[101.2892,6.6838],[101.3094,6.5651],[101.4942,6.6057],[101.5371,6.5557],[101.5929,6.5651],[101.5743,6.6213],[101.6308,6.6356],[101.6689,6.5742],[101.7247,6.5768]]]},"properties":{"pro_code":"94","pro_th":"ปัตตานี","pro_en":"Pattani","reg_nesdb":"South","reg_royin":"South"}},
{"type":"Feature","geometry":{"type":"Polygon","coordinates":[[[101.5929,6.5651],[101.5371,6.5557],[101.4942,6.6057],[101.3094,6.5651],[101.2892,6.6838],[101.2139,6.595],[101.1081,6.6291],[101.0459,6.4886],[100.9329,6.4452],[100.9287,6.322],[100.8428,6.3082],[100.8536,6.2316],[100.8714,6.2646],[100.9442,6.243],[100.9672,6.2831],[101.1121,6.2506],[101.1265,6.1939],[101.0583,6.1432],[101.1273,6.1041],[101.1234,5.9774],[101.084,5.9104],[101.0269,5.9144],[100.9843,5.8093],[101.1341,5.6129],[101.2505,5.6991],[101.2771,5.8123],[101.5018,5.8894],[101.4744,6.0675],[101.3712,6.2086],[101.4034,6.2398],[101.3874,6.3358],[101.4633,6.4652],[101.5093,6.4534],[101.5874,6.5134],[101.5929,6.5651]]]},"properties":{"pro_code":"95","pro_th":"ยะลา","pro_en":"Yala","reg_nesdb":"South","reg_royin":"South"}},
{"type":"Feature","geometry":{"type":"MultiPolygon","coordinates":[[[[99.2619,7.6625],[99.2326,7.6308],[99.2768,7.6338],[99.3117,7.5391],[99.2836,7.5161],[99.3276,7.4941],[99.3366,7.3801],[99.3945,7.3075],[99.5211,7.2519],[99.6022,7.1369],[99.6409,7.1674],[99.6668,7.114],[99.7351,7.1308],[99.9593,7.198],[99.9377,7.3182],[99.8225,7.5092],[99.7851,7.6441],[99.818,7.6793],[99.7376,7.8613],[99.7416,8.0067],[99.6309,8.0094],[99.5316,7.8807],[99.4712,7.9048],[99.4202,7.8664],[99.4233,7.9262],[99.3761,7.9431],[99.2784,7.8486],[99.3121,7.7286],[99.2619,7.6625]]],[[[99.3898,7.275],[99.3834,7.2062],[99.451,7.255],[99.3898,7.275]]]]},"properties":{"pro_code":"92","pro_th":"ตรัง","pro_en":"Trang","reg_nesdb":"South","reg_royin":"South"}},
{"type":"Feature","geometry":{"type":"Polygon","coordinates":[[[99.7376,7.8613],[99.818,7.6793],[99.7851,7.6441],[99.8225,7.5092],[99.9377,7.3182],[99.9593,7.198],[99.997,7.116],[100.0569,7.1077],[100.1112,7.167],[100.304,7.2086],[100.3782,7.3134],[100.3983,7.2649],[100.4253,7.2811],[100.3852,7.5062],[100.2572,7.5008],[100.2372,7.5388],[100.1776,7.8764],[100.0472,7.837],[99.9526,7.8974],[99.7376,7.8613]]]},"properties":{"pro_code":"93","pro_th":"พัทลุง","pro_en":"Phatthalung","reg_nesdb":"South","reg_royin":"South"}},
{"type":"Feature","geometry":{"type":"Polygon","coordinates":[[[100.1776,7.8764],[100.2372,7.5388],[100.2572,7.5008],[100.3852,7.5062],[100.4253,7.2811],[100.3983,7.2649],[100.3782,7.3134],[100.304,7.2086],[100.1112,7.167],[100.0569,7.1077],[100.0794,6.963],[100.2204,6.8712],[100.2044,6.7269],[100.2285,6.6943],[100.2908,6.7101],[100.327,6.6645],[100.3041,6.6052],[100.367,6.5402],[100.6533,6.4429],[100.7364,6.5102],[100.7521,6.4589],[100.8106,6.4445],[100.8428,6.3082],[100.9287,6.322],[100.9329,6.4452],[101.0459,6.4886],[101.1081,6.6291],[101.019,6.725],[101.0637,6.8575],[100.7753,6.9767],[100.5413,7.2613],[100.4524,7.4536],[100.3369,7.9319],[100.1776,7.8764]]]},"properties":{"pro_code":"90","pro_th":"สงขลา","pro_en":"Songkhla","reg_nesdb":"South","reg_royin":"South"}},
{"type":"Feature","geometry":{"type":"Polygon","coordinates":[[[98.0898,17.6366],[98.1447,17.6823],[98.1481,17.7765],[98.073,17.83],[98.0475,17.9442],[98.1437,17.9357],[98.2462,17.9887],[98.2209,18.0243],[98.2521,18.0648],[98.1926,18.0971],[98.1394,18.2398],[98.198,18.332],[98.074,18.4294],[98.2371,18.572],[98.1057,18.6487],[98.0925,18.8692],[98.1564,18.9196],[98.2525,19.1607],[98.3427,19.1531],[98.4214,19.0281],[98.5414,19.0255],[98.6517,19.0943],[98.5689,19.2067],[98.6022,19.2779],[98.5874,19.5149],[98.4669,19.6926],[98.2471,19.6769],[98.1637,19.7726],[98.0345,19.8049],[98.0381,19.643],[97.8625,19.5758],[97.888,19.5011],[97.7858,19.3985],[97.8428,19.2894],[97.7827,19.2669],[97.8422,19.2245],[97.8369,19.0949],[97.7698,19.0731],[97.7389,18.9807],[97.6685,18.9481],[97.7413,18.8821],[97.7684,18.5782],[97.651,18.5769],[97.5348,18.4916],[97.4446,18.4955],[97.3618,18.5995],[97.3438,18.5755],[97.5009,18.2684],[97.558,18.3387],[97.6217,18.3159],[97.6095,18.2367],[97.7365,17.9862],[97.672,17.881],[97.7426,17.7848],[97.8473,17.7785],[97.9694,17.8682],[98.0898,17.6366]]]},"properties":{"pro_code":"58","pro_th":"แม่ฮ่องสอน","pro_en":"Mae Hong Son","reg_nesdb":"UpperNorth","reg_royin":"North"}},
{"type":"Feature","geometry":{"type":"MultiPolygon","coordinates":[[[[99.7351,7.1308],[99.669,7.0439],[99.7045,6.9586],[99.6777,6.8998],[99.9129,6.7118],[99.9164,6.6443],[99.8558,6.569],[100.0625,6.5168],[100.1003,6.5509],[100.1216,6.4227],[100.2044,6.7269],[100.2204,6.8712],[100.0794,6.963],[100.0569,7.1077],[99.997,7.116],[99.9593,7.198],[99.7351,7.1308]]],[[[99.2479,6.5822],[99.1636,6.5488],[99.2213,6.5397],[99.2479,6.5822]]],[[[99.2774,6.5787],[99.2832,6.5093],[99.3135,6.5092],[99.3258,6.5527],[99.2774,6.5787]]],[[[99.6487,6.737],[99.5955,6.5981],[99.6541,6.5033],[99.6984,6.5511],[99.6487,6.737]]]]},"properties":{"pro_code":"91","pro_th":"สตูล","pro_en":"Satun","reg_nesdb":"South","reg_royin":"South"}}
]}